{"type":"FeatureCollection","features":[{"type":"Feature","properties":{"group":"worldwide candidate","status":"authorial; historical and ecological validity conditional"},"geometry":{"type":"MultiPolygon","coordinates":[[[[-137.562801639197,-70.41982072495193],[-132.202850383147,-69.56499312761247],[-129.507939074703,-68.06996579182484],[-127.12493316437053,-64.5318115507662],[-125.27519984916728,-62.68014812851485],[-121.94694551565206,-60.604461778787744],[-118.35681158489133,-58.90952221353535],[-111.49979752349849,-55.61718162088257],[-107.96886727789247,-53.74829985135246],[-103.70335179579119,-51.59621961598752],[-100.0837218859509,-49.866879126644626],[-93.75498843116975,-46.680866648497826],[-90.3081939462791,-45.02270603179494],[-85.95007128606922,-43.353273260657474],[-82.08443785177623,-42.211511272238766],[-74.94522556623808,-40.30158114485278],[-73.72885433320839,-40.036858660828564],[-73.7441816399358,-40.06355149173085],[-73.80936527451632,-40.1914441360261],[-73.86743026243687,-40.32135541715055],[-73.91823051867834,-40.45304964981516],[-73.96163096031624,-40.586286589098705],[-73.9975079933752,-40.72082179446724],[-74.02575000282214,-40.85640700894263],[-74.04625784390998,-40.99279055357067],[-74.05894533283217,-41.12971773729267],[-74.063739734387,-41.26693128226712],[-74.06058224408548,-41.40417176462152],[-74.04942846186792,-41.54117807053817],[-74.03024885432815,-41.6776878674896],[-74.00302920208306,-41.81343809034209],[-73.96777102867418,-41.94816544193647],[-73.92449200715208,-42.08160690763626],[-73.8732263402792,-42.213500283203956],[-73.81402511009702,-42.34358471522721],[-73.7469565924469,-42.47160125316865],[-73.6721065319148,-42.59729341195859],[-73.71823218223948,-42.51983679370493],[-73.67364093130128,-42.51463678411628],[-73.47058328891836,-42.180869809965365],[-73.20420074604245,-42.07776021516706],[-72.23920773921813,-41.765118773151436],[-71.6224999908564,-41.79239667533596],[-70.72636343159442,-41.23049058149477],[-70.41088408510306,-40.679760833527844],[-70.03780931668787,-41.050175653931454],[-68.9834637125813,-41.33625266995037],[-68.24449803469999,-41.42884679785022],[-67.58016502587536,-41.2090868471268],[-66.85285825258659,-41.33478437157055],[-65.69564961512583,-41.19652708991218],[-65.69318961039848,-41.26693128226712],[-65.69798401195331,-41.12971773729267],[-65.71067150087549,-40.99279055357067],[-65.73117934196334,-40.85640700894263],[-65.75942135141028,-40.72082179446724],[-65.79529838446923,-40.586286589098705],[-65.83869882610713,-40.45304964981516],[-65.8894990823486,-40.32135541715055],[-65.94756407026915,-40.1914441360261],[-66.01274770484967,-40.06355149173085],[-66.08489338114788,-39.937908260861406],[-66.16383445047131,-39.814739977000876],[-66.24939468945496,-39.69426661089367],[-66.34138876114893,-39.57670226485643],[-66.43962266740958,-39.46225488115497],[-66.54389419206066,-39.35112596407234],[-66.6499213101988,-39.24749048745862],[-64.32096554202897,-39.43311268133595],[-59.001632814303875,-40.35166006349364],[-56.1580681824279,-40.893844672401116],[-52.96560439693947,-41.73617439103576],[-50.45886500095415,-42.60625358686364],[-45.99943886033533,-44.26280109186464],[-43.60910058278012,-45.276251928818866],[-40.936850906202764,-46.80480949395218],[-38.80582080726252,-48.36086917059287],[-34.72200992398715,-51.43132000785531],[-32.37433370353346,-53.02747273231083],[-29.725549770323973,-54.86829086046234],[-27.681086219916942,-56.367817840632874],[-23.934155403190097,-58.998431297356],[-21.26036869195124,-60.204450268965104],[-17.333173064367116,-61.20121151187689],[-13.572642185804218,-61.60992922314729],[-8.029057318796523,-61.61287100871944],[-8.094569364410013,-61.45547415636088],[-8.174262466983091,-61.20376199233664],[-8.230117850794567,-60.95059970635053],[-8.262592178349287,-60.69649297841164],[-8.2721744096687,-60.44193712068548],[-8.259381069087109,-60.18741656556183],[-8.224751911871344,-59.93340444319733],[-8.168845983549893,-59.680362238381235],[-8.092238059873495,-59.42873951714313],[-7.9955154515372255,-59.17897371416085],[-7.879275155025588,-58.93148997270589],[-7.74412132905253,-58.68670102956176],[-7.590663074919072,-58.445007138048],[-7.419512498574652,-58.20679602296653],[-7.357968127689703,-58.130170837058195],[-5.6777842258808136,-58.240459408957705],[-4.169102406086314,-58.5861603606599],[-2.5741165637136203,-58.93930608253849],[-1.8168196408567305,-59.11265488434418],[-0.5229032003408406,-58.811665958599576],[0.1553380090046123,-58.52636035185591],[1.5902310118000398,-58.43053338371428],[2.759813183690687,-58.529645393800386],[3.2672194204372147,-59.010365766412356],[3.6060198516251107,-58.67065910892772],[4.963217994071059,-58.84610810383189],[6.25866822836818,-58.826093283359576],[6.996300068391352,-58.519646434527886],[7.372559373095217,-58.15739550181434],[7.247364220674031,-58.1100957133372],[7.532019085009811,-57.61410410825471],[7.626401596182467,-56.84198912504057],[7.768581148614262,-56.57290675907293],[7.806989111805805,-56.5591097927366],[8.090186572744743,-55.70649203979525],[8.584229332658992,-54.94070063735439],[8.599707994696042,-54.90368031046864],[8.533770086414435,-54.770286544827954],[8.917811558831755,-54.882105860959605],[9.305570107461328,-55.0054614547237],[9.68611760750295,-55.13717056183783],[9.35520275448181,-55.02263952479922],[9.088543663778673,-54.86575731265469],[7.09268368618441,-54.255218364309826],[4.9315674091569734,-53.88527916936617],[0.5133317553300827,-53.23929557447288],[-1.6829751810522056,-52.67134191688184],[-3.906923841424172,-51.73822805659931],[-5.4034265565744475,-50.77567409208854],[-7.544057500750556,-48.81521780442046],[-8.896793075622043,-47.93261865192254],[-10.970599624571562,-47.240545715639236],[-13.122055880880021,-46.928411684797105],[-17.54385991134233,-46.50365033744602],[-19.97974562819122,-46.02804014302046],[-22.83856839208436,-45.15111733869225],[-25.120038317057755,-44.166125188803605],[-28.899394993379925,-41.97755222661864],[-30.306387899933352,-40.53523544775597],[-30.95076517169274,-38.58937397805205],[-30.672158571387364,-36.84231704436482],[-29.218563689661472,-33.61050066251841],[-28.075357122799765,-32.268648832858005],[-26.19160478744966,-31.381187276309994],[-24.21171599621342,-31.165025986720494],[-20.169767509436863,-31.14697014141629],[-18.29032279101526,-30.61358498316166],[-16.656061739884453,-29.29209274234217],[-15.752449301665521,-27.70247824585463],[-14.488265509205785,-24.364202280130495],[-13.389439640283,-22.898149701391183],[-11.554333986277229,-21.69612079159632],[-9.669597475515488,-21.04032696997911],[-6.046440913627688,-19.91596542241255],[-4.421466906630555,-19.478132138804124],[-2.8949182282681156,-19.569760561279775],[-1.8373138381196932,-20.2146980901492],[0.13502215408655383,-22.018215537603552],[1.4262534081881948,-22.483220439423825],[2.985731813721581,-22.15348279910863],[4.137781311272729,-21.153006221528322],[5.682821609300333,-18.46119697134731],[6.480379671478346,-17.24568883332164],[7.613789307185772,-16.29402657953722],[8.802635061440878,-15.859452267968992],[11.353642821303557,-15.216069443599014],[12.829200014272338,-14.88161227829731],[14.79467053576479,-14.686909608236038],[16.653837366556274,-14.668149390860808],[20.382079857411913,-14.509857687358252],[22.144919289827907,-13.942806215793354],[23.563286489587043,-12.797275605210558],[24.11233399803197,-11.57306153898798],[24.208151841657887,-9.179226223289925],[23.977402853704962,-7.818996417726019],[23.277997050815717,-6.1671185973333635],[22.336685617311577,-4.836100735948981],[20.11774096157652,-2.7558844698329317],[19.138703769246302,-1.7451044847850772],[18.496988680295452,-0.4962897191074341],[18.379927250507148,0.6824433082873432],[18.480097662695954,3.13179555546317],[18.58017443134564,4.5079371494458025],[18.950817142234992,6.176667675461543],[19.21349222684232,6.867180031323311],[18.831215409966862,6.859192855640414],[18.39874269465376,6.868228809176646],[17.96701934014153,6.895320499025147],[17.536793365901993,6.940419449863574],[17.108810117417157,7.003444992357988],[16.683810950694408,7.084284446339008],[16.262531942147355,7.1827933750120705],[15.868291875539127,7.292509379084826],[15.612440188005088,8.657731203901784],[16.01105453262004,9.174581641884082],[16.24955072902306,10.287317005535064],[15.348357310200921,11.282711489278915],[15.089535046544698,11.903342315801948],[15.250889216137118,12.37450213599156],[15.86707661464422,12.792482398480063],[15.82116550517706,13.306154695503336],[15.35169411325416,13.534809983148513],[14.912275806270728,13.98048215195997],[14.594997564316513,14.595476463734007],[14.029215400673566,14.985780343573513],[14.191785711989384,16.058189563676933],[13.6231197090373,16.117575408420045],[13.405452738532327,15.449629541839228],[12.98106497906409,15.218811808298282],[12.292763291373841,16.132192829293412],[11.659159764376488,16.516135512254923],[11.08019254330647,17.476454073661507],[10.884844511966122,18.111524181583203],[10.884844511966127,18.11152418158321],[10.884844511966108,18.11152418158327],[13.136056279304645,21.486241840209647],[13.136056279304746,21.486241840209697],[13.136056279304754,21.486241840209708],[13.14181995214503,21.489085246432595],[13.893671581999563,21.556119755227904],[14.340667096490623,21.179632178657354],[14.323495452995143,21.839626106823804],[14.588601536013549,22.669230720790818],[14.562889333930993,23.009311120316696],[14.7638018666095,23.383220505763273],[15.03262183091456,23.537171270264103],[15.667602129757352,22.86496118548199],[17.288355798166496,22.670269520054536],[17.721161502112885,22.4929075851075],[18.82017095849999,22.545525136416252],[19.83711253373588,22.517870694478802],[20.32009013648239,22.721058147599926],[20.345233741606155,21.73003403651045],[21.915989326105464,21.3313191382687],[21.78300623659603,20.913721759859225],[22.46808454521602,20.833320354063392],[22.81843687952906,20.230154246744927],[23.47236590621319,20.518799181903137],[24.696165243016424,20.627471028369705],[25.027164509362937,20.88808332787748],[24.816260738458162,21.505527351230278],[26.099715279078765,22.346486764554594],[26.470289835639,21.95787191702566],[27.350741951041016,22.262431023403074],[27.433315513876057,22.42837330003532],[27.57574508344433,22.22832841968909],[27.8129816515289,21.85942459672782],[28.031719049209272,21.481110781822032],[28.231678175565172,21.094161612460493],[28.08830618498029,21.371606676747223],[28.609015783803496,21.313317115945885],[30.538159767514657,20.891322822298232],[32.8092945051431,20.159942681830593],[34.647001075550776,19.366328781442736],[37.81626172616859,17.59136195113867],[39.74254966560262,16.72077297933275],[42.447751225284705,15.986223790395464],[45.06072838203514,15.611099914403688],[50.21845068799477,15.032817198921009],[52.80232575819039,14.27496515516227],[55.365215921792455,12.779340087077697],[57.02339191089402,11.078098066084454],[59.325959890668095,7.434001771285328],[60.802342454897776,5.574596586795497],[63.038994441891155,3.6955790358929548],[65.3123455442391,2.415951819169479],[69.8907997165094,0.38366934190743324],[72.1305493588737,-0.853183420638742],[74.29641569244379,-2.4408387236238394],[75.66919813937204,-3.833371369917929],[77.61355126136623,-6.424939497738178],[78.71858746005927,-7.775323938250294],[80.10307464308288,-9.21767952426475],[81.30894484419413,-10.2680982218901],[83.54792459007031,-11.975925585852096],[84.44217903156571,-13.016921174258162],[84.87773782460384,-14.431187089090058],[84.70162822568716,-15.747212385705485],[83.70945777084094,-18.276992072991284],[82.70060391230598,-19.476457793490514],[80.67489484416504,-20.53390901299396],[78.305200626183,-21.076913970175674],[73.20627970696644,-21.564236714731386],[70.74779386765515,-22.261365012500086],[68.45210861037307,-23.92842254401028],[67.04280390519482,-26.0193877719554],[64.92850866856017,-30.598380438813933],[64.00449430211908,-32.96860088313951],[63.546466851293985,-35.587986006776745],[63.768858871738,-37.612913269408715],[64.95922430498058,-41.098703242185145],[65.21825575343878,-43.066105035187675],[64.73886256237954,-45.456635185952955],[63.602473883241466,-47.44972447851112],[60.36335890253485,-50.94186423665361],[58.00242789340122,-52.60625785917511],[54.387213328418916,-54.11820725308824],[50.77061584844129,-54.91918513515308],[43.557525781995984,-55.53758619879219],[39.47413616772927,-55.883393707709914],[34.39969520949692,-56.500781638675065],[29.91489628854447,-57.15520781173138],[21.224269475644242,-58.14408509854535],[17.039427636675445,-58.15349102462427],[13.943426176857024,-57.740735335462006],[13.944966125442882,-57.742310288285495],[14.149661164664337,-57.97244286194593],[14.337890631111136,-58.20679602296653],[14.509041207455557,-58.445007138048],[14.662499461589015,-58.68670102956176],[14.79765328756207,-58.93148997270589],[14.913893584073708,-59.17897371416085],[15.01061619240998,-59.42873951714313],[15.087224116086375,-59.680362238381235],[15.14313004440783,-59.93340444319733],[15.17775920162359,-60.18741656556183],[15.190552542205182,-60.44193712068548],[15.180970310885769,-60.69649297841164],[15.148495983331053,-60.95059970635053],[15.092640599519576,-61.20376199233664],[15.012947496946499,-61.45547415636088],[14.908997444486278,-61.70522076259991],[14.7804141700259,-61.95247734249646],[14.626870265704788,-62.19671123999518],[14.448093443701733,-62.43738258995909],[14.243873102977219,-62.673945440431496],[14.01406715326728,-62.90584902871288],[13.758609027076258,-63.1325392201364],[13.47751479368593,-63.35346011689829],[13.429550888489299,-63.387028368257226],[12.279131519185102,-62.75701178670606],[10.746788140875488,-62.09252430085742],[9.521493472186716,-61.50897490147819],[8.61572972875377,-61.59239352142843],[8.701179188372842,-61.028050293534264],[8.65610610954306,-60.67654472953168],[8.732032173677691,-60.264680383117515],[8.62401761709351,-60.12731154991484],[8.272618046904874,-60.56465029128488],[8.142696955544457,-61.340643110697116],[7.951241857977507,-61.667885989935115],[7.816164711039502,-61.89276013794931],[7.4377509385303675,-62.09632930520224],[6.720880114900806,-61.81774994882118],[5.774761801231799,-61.424020017522174],[4.213678983565895,-60.05976524688972],[4.050428794524715,-60.157434805543275],[4.979865976017129,-61.175727261660235],[6.348954759483536,-62.11432223747928],[8.297414107382242,-63.55986601252964],[9.247614386319176,-64.03929275406259],[10.147843713302773,-64.54012684217184],[10.679838175258734,-64.73616403107143],[10.34046174151348,-64.84741873080662],[9.846284368941586,-64.9921305873052],[9.332557891416958,-65.12589396545648],[8.800571078358384,-65.24828708734931],[8.251736706682847,-65.35891738214214],[7.687586369114543,-65.45742440497833],[7.109763399054602,-65.54348262942622],[6.85056273557731,-65.57570811687722],[8.396961935725985,-66.39845314081774],[10.92718648189878,-67.89380592644203],[12.84680695775708,-69.83987433258285],[13.242519239447937,-71.62802169817982],[11.811955300624055,-75.06084591899952],[12.696609173998267,-76.71289759532235],[18.20469498438111,-78.17168803070712],[27.133565598734886,-78.74045580829713],[47.016639012256114,-78.11936393359544],[57.2296131181539,-77.55273812497677],[69.51477032594272,-76.95367959215136],[80.2060462805713,-76.44365673524156],[98.78822467080487,-74.85748769866656],[106.98083792771884,-74.02000194660972],[115.75036953659149,-73.69576874779341],[123.16515430902902,-74.00769661480871],[138.2272560862147,-74.82296813062266],[145.6605929467392,-74.42757673997131],[151.58610754560814,-73.04428119238185],[154.02339153430123,-71.31076456840636],[155.7444271494338,-67.6032226296516],[157.40990993949927,-65.87610096082811],[160.6224157418796,-64.34129562573068],[164.2386468490017,-63.428848526823224],[171.52506224825422,-61.94065233813516],[175.06381874010685,-61.459924197792425],[179.1149385800707,-61.70071835689759],[179.99999995156966,-61.936788586955586],[180.0,-90.0],[-180.0,-90.0],[-179.99999755806684,-61.9367892344485],[-177.3146595899272,-62.583102459069956],[-169.67751731705502,-64.78116749947097],[-165.0017212592682,-65.89585924583733],[-159.12769577170317,-67.24822189848643],[-153.9348980843566,-68.39468381554539],[-143.3825177415376,-70.22406870159587],[-137.562801639197,-70.41982072495193]],[[28.998303478283844,15.216479154646663],[29.068649103666097,15.640560282378283],[29.12025903112964,16.067149388116896],[29.152925809778676,16.49547147913848],[29.166468796426635,16.924743892194797],[29.160735121818206,17.354177278252468],[29.13560073623458,17.782976622452548],[29.090971533114462,18.210342304848805],[29.026784547418238,18.63547120753287],[28.943009223406932,19.05755787369767],[28.935736908784996,19.08698456812617],[27.951671589401073,18.75143472704575],[27.160717342992648,18.82828807228573],[26.727647626514248,18.602430421315148],[26.053451361733693,19.170926998093005],[24.39762142894253,19.211377221851254],[22.976543882459765,19.285019209721032],[21.733569116054355,19.46764024550087],[20.337712031971588,18.840962644822316],[20.78964467958922,18.46887663148287],[21.649671844912042,18.7748305228677],[23.357315836147095,18.474903806304738],[22.556342975768843,17.431872140096704],[23.576380368595547,16.612696522355016],[25.737560735715707,16.452720989574942],[26.063942519232977,17.126929434661367],[26.899423718174354,16.26203807992791],[27.386725363488765,15.60523942850936],[26.703728511636793,15.303502694980171],[26.93350303823187,14.533379010025559],[27.672298312987913,14.177863160062692],[28.154324436571695,12.680715480856046],[28.19756723243617,12.766856996254742],[28.374571753531427,13.16016257068856],[28.534603730215387,13.560412984915077],[28.677310943623578,13.966898622881386],[28.802363729640444,14.37889674652874],[28.909455526371556,14.795672372191673],[28.998303478283844,15.216479154646663]]],[[[5.499166230337589,-54.56683121639156],[5.639773457880195,-54.745690534974905],[5.700672644057578,-54.82242278714209],[4.313926419494974,-55.31587339725224],[3.5903835025981525,-55.220281429182634],[3.206346217183358,-54.83360001900777],[3.873780246003585,-54.7675732437457],[3.972826192016127,-54.75727783061124],[4.139767632979181,-54.506764051350004],[5.147977837408302,-54.46186840130571],[5.836542315582846,-54.2387272668228],[6.022734956249065,-54.26137014224484],[5.499166230337589,-54.56683121639156]]],[[[-20.389490026078636,-0.6691482928934056],[-18.556093017918755,-1.3003660788425484],[-17.56544530903654,-1.6462626768261535],[-16.430945850765635,-2.092442476892016],[-15.527597614474265,-2.4826950780821426],[-13.939135479429744,-3.132621177727827],[-13.404776277162997,-3.475459298471507],[-13.391502813693222,-3.9798006251218068],[-13.895537478672427,-4.525180562469823],[-15.387280005998276,-5.743611852970313],[-16.32006353053688,-6.348441453347511],[-17.67688710259034,-6.855370893761921],[-19.02323961454307,-7.043601062164462],[-21.725290885673502,-6.955022552501038],[-23.097990039590076,-6.704229795958101],[-24.490904041974257,-6.1280300450033005],[-25.424764786573565,-5.428059703467095],[-26.783384740920663,-3.861962755699181],[-27.126976769503923,-3.001514001639522],[-26.84414547579453,-2.098915294908588],[-26.040164304016255,-1.4940194906722033],[-23.911719904438957,-0.6486666588196873],[-22.75663276199677,-0.4023279994431121],[-21.436004820641873,-0.42398586971086216],[-20.389490026078636,-0.6691482928934056]]],[[[-177.42159525730978,11.950002030739697],[-177.23508966374655,11.36093795103643],[-177.0656312766763,10.81608571259198],[-176.90734903301393,10.322396459062881],[-176.7540799129836,9.88530462432718],[-176.59958681989045,9.508569144670966],[-176.43778407152888,9.194173886429002],[-176.26296190873563,8.94229090110265],[-176.0700009472351,8.75130765795256],[-175.85456744443323,8.617916869493632],[-175.61328067966124,8.537265036247206],[-175.34384464445023,8.503153505707992],[-175.04513754511913,8.508283764040566],[-174.7172542424557,8.544536936509969],[-174.36149860314683,8.603276126842369],[-173.98032474660985,8.675659328329543],[-173.57722829547612,8.752950235696424],[-173.15659094595028,8.826814415455734],[-172.72348392041505,8.889588980601982],[-172.28343806635374,8.934515167062345],[-171.84219038995627,8.955924992643578],[-171.40541848284533,8.949375417305303],[-170.97847542261664,8.911725992465465],[-170.56613813297704,8.841158724658309],[-170.17238177454823,8.73714160403944],[-169.8001914970461,8.600339785358859],[-169.45142091602608,8.432480612183767],[-169.12670416772775,8.236180445154613],[-168.82542557798098,8.014742545144944],[-168.5457480937753,7.771936071908397],[-168.28469887096261,7.511766619081281],[-168.03830792993864,7.23824866154617],[-167.8017936584017,6.955189883300515],[-167.56978717785435,6.665996614486344],[-167.33658618800945,6.373508555275224],[-167.0964278422513,6.079869617135396],[-166.84376947942167,5.786440088857808],[-166.5735656526828,5.493753470225309],[-166.28152988242473,5.2015192655738876],[-165.96436995283338,4.9086708698474455],[-165.6199864026109,4.613455507125085],[-165.24762514537827,4.3135611049603675],[-164.84797688526962,4.006273121889607],[-164.42321812780258,3.688652803203889],[-163.97699105096532,3.3577272256404167],[-163.51432218817357,3.01068089215821],[-163.04148264380686,2.645038614191873],[-162.56579525018623,2.258829994691197],[-162.09539650814483,1.850726978217446],[-161.63896316585695,1.4201475891386346],[-161.20541474689952,0.9673210089711146],[-160.80360415519374,0.49331138221948706],[-160.442008644889,1.5861139600997358e-14],[-160.12843300051435,-0.5099723869945801],[-159.86973583824357,-1.0332995740400288],[-159.6715886586527,-1.566135262292591],[-159.53827580381954,-2.104243805349762],[-159.47254191871568,-2.6431697371332805],[-159.47549196089847,-3.178419118231215],[-159.54654725830653,-3.705645559354626],[-159.68345954724356,-4.220833695875352],[-159.8823832675454,-4.7204728527299515],[-160.13800458704637,-5.201713666042685],[-160.4437236432819,-5.662500582508489],[-160.79188435519694,-6.101673542980429],[-161.17404396918542,-6.519032884560057],[-161.5812724232361,-6.915362652850366],[-162.00446984162875,-7.292409135660503],[-162.43468921605952,-7.652813471613225],[-162.86345075713413,-7.99999953760592],[-163.2830346133138,-8.338020803973878],[-163.68673966469385,-8.671372259099835],[-164.06909782983792,-9.004775639854707],[-164.42603562688902,-9.342947884356356],[-164.75497741270587,-9.690363823531538],[-165.05488757893545,-10.051024581835273],[-165.32625181568346,-10.428242956636437],[-165.5710001933115,-10.824456229757182],[-165.79237712851761,-11.24107550914837],[-165.99476519934302,-11.678378904482843],[-166.18347120294246,-12.135453724816678],[-166.3644837993497,-12.610190576414542],[-166.54421258479863,-13.099329864628606],[-166.72921855705172,-13.598558891116172],[-166.9259457661322,-14.102655598514783],[-167.14046358748496,-14.605673137141691],[-167.3782285943739,-15.101157869252557],[-167.64387448385526,-15.582392208846187],[-167.94103790781895,-16.0426528121174],[-168.2722272957442,-16.475474059928818],[-168.6387406990752,-16.874906480752355],[-169.04063719488892,-17.235759735737062],[-169.4767643498491,-17.553820037828544],[-169.94484164095545,-17.826032443485715],[-170.44159665792856,-18.050639397158427],[-170.9629476091882,-18.227268283491295],[-171.50422246574453,-18.35696258210996],[-172.06040240217663,-18.442153506159677],[-172.62637539772467,-18.486571654644525],[-173.1971851980211,-18.495101071654137],[-173.768261395149,-18.47358098683699],[-174.33561806254517,-18.428563196594446],[-174.8960109292292,-18.367035334730936],[-175.44704615115654,-18.2961220180452],[-175.98723697729574,-18.222776939982165],[-176.51600770709038,-18.153479390753247],[-177.03364708011705,-18.093948427038278],[-177.5412155177814,-18.048887059989866],[-178.0404124300147,-18.021767461299724],[-178.53341114670283,-18.014666397229444],[-179.0226700022433,-18.02815798351265],[-179.51072876316323,-18.061268499462933],[-179.99999953211912,-18.111495450205275],[-180.0,0.0],[-179.99999955933376,17.12134714310175],[-179.55487236977362,16.524620612538815],[-179.14493924970645,15.894258980714035],[-178.7714469645268,15.239227918979203],[-178.43462464207272,14.569341806974938],[-178.1336366947483,13.894966089729603],[-177.86658003951624,13.22669570237876],[-177.63052470205332,12.575022211385633],[-177.42159525730978,11.950002030739697]]],[[[-88.27325253911819,3.314478620836798],[-89.83360594690998,1.2511342243223718],[-90.42058415149404,0.005439775916568228],[-90.62565132656209,-1.6606356820238724],[-90.3793287907255,-3.1890508807673594],[-89.42441033908644,-6.100862678652868],[-89.28645857081159,-7.698346361086876],[-89.84277315769452,-9.58885675580131],[-90.9173173482474,-11.144889735202538],[-93.61439906745953,-13.916589220657261],[-95.20563824589414,-15.165269104873527],[-97.25819349492508,-16.138144429971085],[-99.07892167412528,-16.505984290797343],[-102.47802151745397,-16.611902180309567],[-104.21542478134407,-16.380513624334625],[-106.01812758109602,-15.613131058472364],[-107.28104382373,-14.576228413942047],[-109.26120729244673,-12.248261134941668],[-110.51832990347019,-11.336149983207186],[-112.31633078103711,-10.91056358596658],[-114.06123008766073,-11.097418395073564],[-117.51925625247307,-12.02600917947855],[-119.3033402960965,-12.07303979988421],[-121.17522966705934,-11.352108721978121],[-122.51159800288845,-10.13209011884604],[-124.67847720303294,-7.253363548836814],[-125.60700051989934,-5.592724417203501],[-126.22370826715351,-3.4430351680457276],[-126.3368444787916,-1.5032136671552017],[-126.12601647194512,2.193511622631565],[-126.39447194589457,4.084169750051896],[-127.34590963071987,6.027891564262579],[-128.65325278664992,7.353114112929853],[-131.64285889020672,9.303460042177592],[-132.98184107818972,10.46413454417524],[-133.9895416536806,12.082155651155311],[-134.33945978526828,13.647698533063755],[-134.44446918267226,16.765768044296298],[-134.2575773616185,18.462582232413354],[-133.51980476712131,20.455462652311734],[-132.45695740281374,22.096409455892534],[-129.98393397154175,25.07249389133534],[-128.3429834532355,26.47134377665382],[-125.87278763212777,27.61668943723403],[-123.39392647036553,28.07916925914986],[-118.439892591033,28.1829342316967],[-115.74790794712358,27.948389838524466],[-112.659726951588,27.22000908392174],[-110.23191834725323,26.241471310159437],[-106.12575457769852,23.968735879552764],[-104.00989577587522,23.025497238494093],[-101.66500763616683,22.55851312901238],[-99.84242009201354,22.739413140121908],[-96.67784651804537,23.739499383236346],[-94.96279960697338,23.9120281686376],[-93.02228609337193,23.452050129926057],[-91.52330256658621,22.516954831946798],[-89.60138775935788,20.720245238239528],[-89.56811249943675,20.581416829822327],[-89.44911984926347,20.166687911627665],[-89.41093644420258,20.05267484762897],[-89.18172085109464,20.088691147996038],[-88.95701783080146,19.53979311281036],[-88.54080736980656,18.84960296472779],[-88.2114221213496,18.982315909690172],[-88.13604174559846,18.60862514300116],[-87.60704545878163,18.64696096348393],[-87.22838735688796,18.40750974219048],[-87.16582243385947,17.91098711276976],[-86.5137539958729,17.47994695268388],[-85.97225178033237,17.087849723211605],[-85.71472905178811,17.45033676607326],[-85.11156836643781,17.248402576935447],[-84.146955929608,17.447357585498853],[-83.87919312741839,17.22591518969674],[-82.9882352310211,17.35385344761923],[-82.41361630138391,17.734919786319807],[-82.39324716220234,17.75541496204117],[-82.09626109540699,18.05314760971367],[-81.51877763013296,18.240951932971974],[-81.25011563537892,17.98410053311733],[-81.16554348535368,18.231315671689224],[-80.80828594280892,18.39914800934548],[-80.48798145487798,18.8761429971173],[-80.53021092816782,19.31112718229229],[-80.88714725748828,19.53006829126483],[-81.1309523864009,19.94249569502692],[-81.15567641412026,20.15989036491269],[-81.37179918999503,20.267877688156627],[-81.97407730737822,19.8229975425309],[-82.09615939534707,20.099471746756464],[-82.24663191230947,20.249614570910687],[-82.27757245543539,20.713129782179035],[-81.63024917476994,20.854592949285813],[-81.80481677707382,20.99224784906281],[-81.72353398557165,21.315550699706556],[-81.28052868994695,21.49328002332621],[-81.1841107047192,21.89479290340706],[-81.04190547663742,22.144290909740036],[-81.01609649028086,22.568274792474604],[-81.24870553075476,22.611770012455615],[-81.07779873286808,22.716173874032823],[-80.80110649530756,23.23834539561697],[-80.55867762567124,23.42510594058454],[-80.37824707778728,23.299990381902916],[-80.13550094615172,23.32080012708125],[-79.85431648698851,23.577101722315202],[-79.60919545292799,23.949979524349526],[-79.44135621493147,24.27878064400069],[-79.11575403228554,24.320698421521904],[-78.89742118978404,24.563779709142594],[-79.22148125405872,24.52400122577879],[-79.46663310418296,24.738765200503895],[-79.1423339494658,24.941434179305404],[-79.00506597893096,25.248775336944444],[-78.77038673983236,25.36606323628487],[-78.43535639712975,25.334265762046115],[-78.1011190758991,25.176845108278346],[-77.91798558227507,25.440339164409394],[-77.72805567510449,25.198557225430996],[-77.34566202001172,25.50661313083951],[-76.84986565488204,25.922380924305674],[-76.45186055596012,26.101561561914394],[-76.05395091940859,26.477206341254874],[-75.48979666095202,26.91176149753053],[-75.33165224233616,26.786247332751753],[-75.51998897197157,26.643940445414078],[-75.45111813023146,26.562428840474862],[-75.08157219549133,26.69292271108595],[-74.94500490703761,26.97586141290521],[-75.19279314815573,27.11147017970629],[-75.09935018611829,27.669490146536983],[-74.9426942749358,28.00530463553457],[-74.6606644432246,28.37902573898729],[-74.50994317656104,28.906576317312872],[-74.224183430313,29.15040412610219],[-73.9467038831877,29.61957254534245],[-73.82650903359121,30.216337805658465],[-73.52348771272017,30.62607645449621],[-72.95582710368191,31.078267585029167],[-71.4981779368047,31.977905985849073],[-71.01610856820284,32.40857474868672],[-70.5382862677697,33.1310973784851],[-70.50106255272166,33.67163326316961],[-70.76652995318703,34.502120654032446],[-70.76903391326518,34.997187069556226],[-70.28583687906318,35.6102556440181],[-69.87093128140945,36.27523105070163],[-69.06873423486361,37.05044409851566],[-68.69053051100393,37.71776980502604],[-67.78622585061912,38.65787300151882],[-66.93075357693122,39.30862536772018],[-66.5156026964469,39.47021191455327],[-66.25448414342209,39.9668298727326],[-65.80035113988086,40.47557784829674],[-65.82801173921554,40.48231644616237],[-66.2010331034728,40.55843338025702],[-66.3222355509027,40.57849962856973],[-64.26785165999472,43.48952330391656],[-62.5831503694899,45.23660846607106],[-60.03315580698535,47.09497764076266],[-57.45629013723446,48.412858560076714],[-52.10929880023628,50.33488693522574],[-49.052455857993536,50.92480049817944],[-45.52766163658307,50.93407811165463],[-42.82401612370194,50.389267340440284],[-38.44696570780244,48.70687253293258],[-36.06041102634745,47.812956891893],[-33.143245565621754,46.86975045087389],[-30.66033807283948,46.174255757695555],[-26.2393298661603,44.90716648307052],[-23.93127581187953,44.03499344458682],[-21.322548590800245,42.7978388712785],[-19.291843376777727,41.616771194368354],[-15.959730407328308,39.24992518885773],[-14.204188989156847,37.92531915182282],[-12.129505170622037,36.37770601774082],[-10.432311675877829,35.114788431492116],[-7.572493405337367,32.7923784131461],[-6.01366444376159,31.774557671348955],[-4.000629173358266,31.089231719922115],[-2.1366966559901175,30.933590489539736],[1.537322416512549,30.965648113005233],[3.365816645563194,30.552980702645453],[5.0676892865803,29.49709040689898],[5.060241944654299,29.49367750446021],[5.358870946016375,29.63053057998212],[5.664807219167956,29.75531047370197],[5.977395954289186,29.86773478798421],[6.295959320477298,29.967547884299123],[6.619798508841059,30.054521832495578],[6.948195945534261,30.12845727113269],[7.11245912862169,30.158482984080994],[7.078160606130217,29.98477276325763],[6.874222853109247,29.650548675735266],[7.135770337084126,29.226685342224012],[7.914584122209197,29.2413465971643],[8.226083161523013,28.672369384147586],[8.513285563246255,28.343431483489635],[8.323032749996452,27.802468550358856],[8.573550573063676,27.283455326996062],[8.179243595072977,26.792850446658008],[7.590740234193864,26.371556469062657],[7.254977190682919,25.92532442450853],[6.842240133243252,25.95437719504503],[6.554816060736242,26.188960590364676],[6.032822889926332,25.80959318594328],[5.704186532549455,25.967544592033995],[5.262583502631174,25.737353261494846],[5.245146657842825,25.2736267497419],[5.464074247250967,25.045622544484452],[5.031358572177474,24.73638520357622],[5.315553570844637,24.692156853025168],[5.856892889693988,24.800937028411116],[6.056136931429701,24.9836457203886],[6.3580604845774795,24.6850170988009],[7.036318183051118,24.627873464842665],[7.617683824825763,24.21226355908033],[7.664863790795705,23.77449103158255],[8.000489116633814,23.05281142492452],[7.263150031671418,22.843892980271523],[6.180163003810811,22.6377014041687],[5.838459293177441,22.723773523507237],[6.035478677611576,23.192304517536286],[5.121552669461014,23.359824321712086],[5.312045358433546,22.68283494282976],[5.716554357612821,22.195204860167316],[5.860040728942473,21.641189834381173],[6.1070642863370175,21.131148918183435],[6.528514494439232,20.67811874086145],[6.15151672704136,20.24030866824623],[5.488396948525165,20.389105520077894],[4.901803614830018,20.062769494674093],[4.691939372458363,19.609917469453844],[4.21796864818008,19.22655499590529],[3.854103765253101,19.1832738774109],[3.334307398671397,18.95713530150296],[3.3806369180143188,18.9104886466488],[3.602276783239777,18.70510490637741],[3.8325714181934165,18.508726042614647],[3.8809502710218564,18.47079174091508],[3.2840616235227884,18.277224941738062],[2.420836334369343,18.487671315222418],[0.6323382261406457,19.3500663365511],[-0.4831478102901208,19.554265583140094],[-1.9163979092457164,19.348946051177254],[-3.1174071843711157,18.792404073463],[-5.08093058624203,17.24908180917828],[-6.070264410649994,16.67926466170177],[-7.316651752108381,16.578813704756225],[-8.497033582703006,16.967406346198484],[-10.960497718070748,18.118355274991657],[-12.379703122482931,18.71989758985019],[-14.070363413523276,19.4937956700363],[-15.459280242648846,20.20153035351401],[-17.985047080909006,21.507943384200072],[-19.369444261602116,21.95894300344609],[-20.912930768034858,22.07005607489198],[-22.071833305064008,21.808969142242102],[-23.953956210530425,20.869928334432643],[-24.635662237346672,20.178367418924314],[-24.808232563990853,19.142339961489096],[-24.414523541963337,18.139079925793535],[-23.04630026136487,16.210990739116372],[-22.509438074970088,15.09145649672467],[-22.257002069482315,13.636558095104606],[-22.34138168377029,12.320201572869186],[-22.715834431334514,9.809455357479914],[-23.039613821738453,8.508644901588587],[-23.75271900113979,7.055081998312645],[-24.63054043993149,5.87985622229957],[-26.488834492061315,3.641243468615298],[-27.579899160230383,2.4500105134226504],[-29.09643866830889,1.2260319156200026],[-30.557793162907604,0.38640628693125006],[-33.42756889775951,-0.9697654370004306],[-35.01311104217103,-1.4694914252291076],[-36.935034456022585,-1.4667846812975098],[-38.551179245912785,-0.8975429459551375],[-41.43102121364538,0.95298655843513],[-43.01146290686371,1.7469118228569935],[-44.919657071327286,2.1475984955829213],[-46.52775314300138,1.974627026123253],[-49.43293609549144,0.9724143690339627],[-50.99669471042146,0.683877796797788],[-52.794727800540784,0.8920927383188462],[-54.22474026319529,1.5579266264616627],[-56.69331065696911,3.4115702067006266],[-57.641454509415475,4.633082626946553],[-58.018076699184725,6.388847741221483],[-57.682087449318864,8.06644570337447],[-56.22437103388939,11.268699009593382],[-55.553546350856436,13.033794658261774],[-55.05371692836213,15.184516345384573],[-54.89348858141919,17.02431248966624],[-54.863034796885415,20.422235018156446],[-55.048304092197355,21.859693435647365],[-55.73087203170638,22.76391254518511],[-56.701601519101324,22.81846908204629],[-58.911602822873846,22.020346668052856],[-60.16264221231498,21.769064649198118],[-61.728285178405876,21.85039258897009],[-63.09580391164598,22.246275802931876],[-65.6525930036741,23.355897900365605],[-66.92347642490574,24.12810890384232],[-68.1655978254482,25.351128261271157],[-68.96053256041411,26.62406701369399],[-69.26276463860532,27.31649909801469],[-69.43405476547305,27.33832565576749],[-69.56459907864947,27.35980176996759],[-69.51913362994074,27.281328654734672],[-69.31798312698461,26.890982077254737],[-69.24200135000926,26.723770070850296],[-69.35502505356374,26.738502100296216],[-69.39357876316143,26.561897498035414],[-69.69066662720334,26.622248223451795],[-70.1404401719779,26.844452743619737],[-70.32658238816782,26.786970111696615],[-70.70492984827142,26.942194223890418],[-70.82143906578787,26.897532884265008],[-71.36252191145692,27.084788162381926],[-71.62542540495961,27.311175081043867],[-71.63132676583993,27.487377327171842],[-71.98539550524953,27.727799594672522],[-72.23951281205615,27.4443013069992],[-72.08715088320548,27.340318716782175],[-72.27548641553497,27.079639676226307],[-72.33492935711999,26.986269448422963],[-72.17376813631178,26.752242650703025],[-72.20168965491246,26.477715544673227],[-72.30596656336911,26.400926471632232],[-72.2745101174964,26.246112497757295],[-72.44269146387899,25.815947262854074],[-72.48065094334412,25.371613701382525],[-72.40519588521482,25.050112762587176],[-72.29930596010989,24.923407224016703],[-72.40046252391761,24.62665031983923],[-72.50746426233214,24.407310917759403],[-72.5172285670289,24.15476988691435],[-72.44984908929027,23.954261853957945],[-72.66031552949717,23.53594295206272],[-72.70485949679548,23.387123616144653],[-72.94537219749637,23.118119249337475],[-73.2229505482253,22.868075872131115],[-73.43155969209452,22.53736617300253],[-73.75783930732176,22.31558869045695],[-73.8511588178358,22.40871925837567],[-74.08540496396853,22.482043087223563],[-74.49054322068048,22.42290001981418],[-74.83205777367397,22.68067807712486],[-75.25449593296257,22.825698408103516],[-75.72685504768336,22.9011556792681],[-76.01083803241815,22.874188171003084],[-76.49981738664836,22.892389702871846],[-76.59095216106445,23.050097366370355],[-77.0450346088801,23.180309165098596],[-77.3375897390405,23.136808617773948],[-77.59586065277426,23.358822306503853],[-77.89333862098123,23.336548625043648],[-78.08515163743091,23.200335383185376],[-78.695738046071,22.9958788884602],[-79.16230853676163,22.646930087818074],[-79.65851521922863,22.21581751709804],[-80.07032767028595,21.886317238787154],[-80.29671748554557,21.920166664339465],[-80.37180204592988,21.529677890501393],[-80.29071796358178,21.431467786346648],[-80.57186030105537,21.1754157974229],[-80.52558353749262,20.685924165868755],[-80.28293727081483,20.251556797198646],[-80.1063756837161,19.64126397416028],[-79.81082103897467,19.287572324419973],[-79.90639457359197,18.747494545842883],[-80.00774115490168,18.789742316109795],[-80.07608315551087,18.24255217876296],[-80.28223955377457,17.813309918615932],[-80.61473170314727,17.506754055279828],[-80.92279451796574,17.14877182217694],[-80.98067117248199,16.640008434380757],[-80.28971150894516,15.867520368795663],[-80.1989016269566,15.45685899729239],[-79.85654959292194,15.431587962029955],[-78.99077336882868,15.208822863653607],[-78.54092304507878,14.622635674084718],[-78.55328723732283,14.003986193856917],[-78.34278798249092,13.915865958079223],[-78.46630958687116,13.153303393868597],[-78.2387092402913,12.777745275069284],[-78.27636672250895,12.773941046470423],[-78.71586674688177,12.747358747760433],[-79.15608641904504,12.738492976390832],[-79.5963060912083,12.747358747760433],[-80.03580611558112,12.773941046470423],[-80.47386786154165,12.818194855379325],[-80.90977472664657,12.880045242518975],[-81.34281313544454,12.95938750512972],[-81.77227352029476,13.05608736959274],[-82.19745127874623,13.16998124557913],[-82.61764770249519,13.30087653230639],[-83.03217087349933,13.448551974401113],[-83.26134704782653,13.54075013839697],[-83.11289256618052,13.222829349788542],[-83.14340977016583,11.687607838810223],[-83.72500973928835,10.28079112974656],[-85.41100547024281,7.570848682476808],[-86.32315348672947,6.13030269865555],[-87.39518470549899,4.533427996357837],[-88.27325253911819,3.314478620836798]],[[-64.0111630710308,28.230216971078093],[-63.7269747169415,28.383834580208354],[-63.44976281350582,28.547579180943547],[-63.17999667335175,28.721186855152958],[-62.918139561909086,28.904376958684818],[-62.664648262679556,29.09685240102282],[-62.4199726295435,29.298299939205357],[-62.18455512341431,29.50839048578549],[-61.9588303303201,29.72677943072687],[-61.743224457778275,29.953106977264863],[-61.53815480613913,30.186998491912327],[-61.34402921141357,30.42806486895409],[-61.16124545597597,30.675902909952672],[-60.99019064345089,30.930095718978542],[-60.83124053405966,31.190213114479125],[-60.68475883672766,31.45581205890961],[-60.551096454342385,31.726437107463404],[-60.430590678715184,32.00162087745749],[-60.32356433204421,32.280884540144804],[-60.23032485201043,32.563738336938194],[-60.151163318073095,32.84968212223548],[-60.08635341707193,33.1382059352258],[-60.036150346900996,33.42879060323155],[-60.00078965779863,33.72090837928998],[-60.000252823447205,33.72865843968396],[-60.31931567603157,33.88347579435649],[-61.84090208026485,34.34398462752061],[-62.377397647482006,34.569270648290136],[-63.06807321990721,34.56835746137864],[-63.73265328879017,34.424215205939596],[-64.6993497191683,34.448778519710736],[-65.7604237891942,34.03321275148298],[-66.49201113658928,33.956815665994654],[-67.17179871658564,33.711258392261485],[-67.74819264998948,32.78937494232233],[-68.33271546694998,32.49500750837447],[-68.21329761807381,31.62232542034215],[-68.26916492583683,30.893652678333112],[-68.22820856561424,30.162469667440423],[-68.168564104246,29.54462358107734],[-67.84311537759595,28.875905485495757],[-67.24056393051444,28.542080159720296],[-66.32222748167659,28.298649298120395],[-66.0349287810054,28.080833380736244],[-65.9132125062965,27.51519180089059],[-65.83586057755873,27.53378648506959],[-65.51995517357915,27.622067990135942],[-65.20810662719771,27.721694982022868],[-64.90081185501194,27.832508923210565],[-64.59856418159941,27.95433319461166],[-64.30185294015772,28.086973280591003],[-64.0111630710308,28.230216971078093]]],[[[10.079282875891936,16.073205609142025],[9.488996362224025,15.936309283146402],[9.43031062083381,15.921546050715031],[9.191732429349923,16.060472232391714],[8.92128722608747,16.536895988283437],[9.015493354886003,16.64319627140737],[9.4432646173299,16.68656760885747],[9.859710098234281,16.519831923824853],[9.85971009823429,16.519831923824867],[10.206679764920048,16.372083483169675],[10.079282875891936,16.073205609142025]]],[[[-70.70512553994239,16.74546646479428],[-70.9874046770998,16.411926309960503],[-71.28339944643402,16.08991442913325],[-71.38455105650402,15.98851132072361],[-71.37955402811357,16.06458770588918],[-71.52473779816282,16.368179530986474],[-71.30475786683259,16.88330550855205],[-70.86825116053144,17.387535152547695],[-70.64244672640675,17.250620933533277],[-70.61386923816985,16.862755947723667],[-70.70512553994239,16.74546646479428]]],[[[-68.97064705794472,26.070250449595928],[-69.53844035996534,26.324044454261415],[-69.21124285412539,26.518738897152033],[-69.20040618679825,26.632232191978492],[-69.13716414340158,26.493056334471202],[-68.97681355813913,26.08836482248187],[-68.97064705794472,26.070250449595928]]],[[[8.76275673222698,28.497934118673054],[8.845519441568227,28.87760228524179],[9.23564538590173,28.9289324411988],[9.521827175092984,28.645245536958942],[9.742607103598417,28.28776375668569],[9.153984374417908,28.288426958512236],[8.76275673222698,28.497934118673054]]],[[[94.25844047173963,-14.103150480596897],[94.07152791611855,-14.281993280397373],[93.87649044871898,-14.452649236998255],[93.67369558358985,-14.614775895939536],[93.46352923069843,-14.76804682393157],[93.24639503049715,-14.912152414912018],[93.02271361210761,-15.04680066820556],[92.79292177507675,-15.171717934921634],[92.55747159543405,-15.28664962869944],[92.3168294575851,-15.39136089692868],[92.07147501440595,-15.485637248641474],[91.82190007873669,-15.569285135386858],[91.56860745029967,-15.642132481564415],[91.31210968286928,-15.704029160907806],[91.11860611205631,-15.741969751601694],[91.12648864587797,-15.627135310712692],[91.84924350245058,-15.45284281372236],[92.4241639161724,-15.099200957699406],[92.50727842853311,-14.364694036588334],[93.15384042972488,-13.87117997168098],[94.28604232817213,-14.074275120728027],[94.25844047173963,-14.103150480596897]]],[[[93.51190808453553,-7.917167448473392],[93.02605474389142,-8.285301402339428],[93.08695458844834,-8.938980331616184],[92.97718918643871,-9.763213089938537],[91.6170821455481,-9.925188858642349],[91.33698165559933,-10.425275426690103],[90.46796133827816,-10.907771088599013],[90.0,-10.980906173072013],[90.0,-10.981245534946162],[89.57678223332854,-11.047048532673509],[88.63327841841772,-10.927828991697146],[87.96045891195392,-10.330332627533831],[88.31258923790675,-9.599777558501536],[88.12717663560382,-8.826503983347411],[87.27185488537582,-8.620284983908178],[87.08432266719134,-8.192596834510644],[86.87432333255194,-6.994068241053298],[86.08300528498627,-6.272495576272561],[85.71251745531983,-5.982543673113105],[85.84852674131193,-5.844103181023055],[86.03508371061118,-5.6698402512456765],[86.22895309141231,-5.503732557695389],[86.42977511874733,-5.346087832578231],[86.6371778234062,-5.197198220976474],[86.85077762420055,-5.057339741030411],[87.07017994710392,-4.926771768705108],[87.29497987130873,-4.80573654879038],[87.52476280195657,-4.694458733793583],[87.7591051690048,-4.5931449523753525],[87.99757515139268,-4.5019834089479485],[88.2397334253715,-4.421143516004133],[88.48513393556902,-4.350775560671534],[88.73332468707586,-4.291010406894157],[88.91780461528683,-4.254890268822757],[88.76513997777795,-4.0804298912597625],[88.50852547263737,-3.760020481657478],[88.26615317374326,-3.4288227289852906],[88.0384484931246,-3.0874674277911685],[87.82580865822793,-2.7366022597678072],[87.62860261109056,-2.3768905442885364],[87.49886168692449,-2.1138208898065427],[87.710983443732,-1.9501142005547487],[88.17110318792201,-2.123291747766575],[89.09764255089156,-1.0031283396540291],[89.21518596837804,-2.1879365771169565],[89.89742599671926,-2.5216573065365755],[90.80447562533796,-2.478112505764617],[91.49034486942057,-3.4387906769911063],[92.48806321885647,-3.462943493929307],[94.0217817946854,-3.8424590123244373],[93.66593941198232,-3.990985661149849],[94.12347792644451,-5.121974742995476],[93.51201630158404,-5.521024658523297],[93.45964589426696,-6.233037837501363],[93.14045586550505,-6.7329723835700515],[93.51190808453553,-7.917167448473392]]],[[[93.18897832830861,2.450776074636674],[93.53226949848583,2.2675846844384253],[94.69084317994363,3.1603630914719636],[95.34870156111619,3.148591207093482],[95.64048747951621,2.615806215939783],[95.28693714198647,2.2268898618060975],[94.46918480589406,2.7113123271021937],[94.85355421944669,1.7320045404307702],[94.57609210144919,1.4847174336332762],[94.19014497883123,1.6148455239142856],[93.6025468789115,0.896407019786422],[92.62802084977653,0.9713664515250378],[92.93164527998627,0.30505316514473446],[94.09767366058355,0.38905018230772515],[95.5283963029816,0.42871321606929613],[95.67343569658064,-0.20245996814676734],[95.38020453784998,-0.6303055245502026],[94.45949858262566,-0.3453449361652862],[93.49454506716118,-0.5002327012765806],[93.48747206730991,-0.9199491464233243],[92.80264629470093,-1.2307575613124988],[92.14732295499958,-0.8184511988222385],[91.35324138817627,-0.6764173130071007],[90.0,-0.22541039992687334],[90.0,-0.22543327895197007],[89.84574482660548,-0.1740003926752666],[89.43352252756722,0.035700194035765194],[88.69062086015128,0.8855479941715344],[88.9856272923173,1.6665557811830987],[89.12366410285,2.927224937959428],[89.08057114290328,4.076999198299654],[88.3503000652813,5.06390037450376],[88.57420662184951,5.238887039241448],[89.57083264235537,4.436911379498903],[89.76391860191957,3.6854737994898623],[89.56837584894944,2.723005972989871],[89.61871780326888,1.0567014955274825],[89.76275197645806,0.18308155431457995],[90.0,0.1385072224807544],[90.0,0.1385054695561455],[90.51965802364106,0.04086790123672132],[91.40909384568799,0.9356224214329542],[90.95627916462844,1.4756152948790597],[90.61672054625961,3.340371735363616],[91.0779553346615,3.257823870932423],[90.93208131859082,2.8223423899228313],[91.5181763908522,2.387692426963866],[91.90514250383009,1.5074402192017546],[93.18897832830861,2.450776074636674]]],[[[75.72215924796757,7.2902542137297015],[76.81511743690808,7.168028863608822],[79.00804740666904,6.519240726989128],[80.0235446209867,6.06755490543592],[80.8796077872634,5.37162939666248],[81.29091566576268,4.665819561040018],[81.6665397892971,3.2454419469077913],[81.6320220404025,2.4932056692005413],[81.1562586129341,1.6600382256005741],[80.39844775053427,1.0254343122948992],[78.59999729463031,-0.0392108468603064],[77.59981258470968,-0.3125350541439466],[76.39998723540818,-0.07775687864922506],[75.39923363949242,0.5806248279788121],[73.58637638095286,2.302299832645229],[72.89230455202585,3.211650201821783],[72.63099692383123,4.238299995393317],[72.89162068367833,5.047594706185398],[73.9352721519716,6.459844544368931],[74.64197393717167,7.022672099782133],[75.72215924796757,7.2902542137297015]]],[[[93.15277551175807,6.990160445895206],[93.4868687537212,7.235937480408382],[93.8183570573607,6.859807236957413],[93.6284326800109,6.171502104132948],[93.19467453325682,5.9797938678470945],[93.15277551175807,6.990160445895206]]],[[[89.73854998710962,8.635863627955384],[89.63997784453298,8.120011545387799],[90.0,8.031058978988614],[90.0,8.030934152861729],[90.25453468293577,7.967956679061662],[90.78842046548438,8.379216705078916],[90.90906410407973,8.099009923353117],[90.26902186649126,7.696390822838113],[88.97978422789419,7.398330180848393],[88.34777428001011,7.5537745223880375],[88.45623771157176,7.7039009250330555],[88.71176815213819,8.026596359695306],[88.98149053393013,8.337930355194036],[89.26493023745537,8.63729213395481],[89.2900441180823,8.661571908908073],[89.73854998710962,8.635863627955384]]],[[[92.87251390373362,8.125793328512035],[92.83999396299569,9.359692045960783],[93.14605634415672,10.455910734776094],[93.92828777213089,10.809980918546335],[93.49923309249917,9.972294513018724],[93.40592523533999,9.139350784704815],[93.4674888190237,8.575190492901866],[93.42586382166579,7.884953258423901],[92.87251390373362,8.125793328512035]]],[[[93.49383570428178,15.43024318013819],[92.40346367447312,16.27974035155686],[91.78555000422627,17.432782555068663],[91.79363618360266,18.32134656405449],[92.1718053968545,19.172146091203537],[92.56226948404488,19.908327925356232],[92.78486114303722,20.977568169479436],[93.565561418056,22.69570260522234],[94.24499385849714,24.52447849614755],[94.83460410992332,25.194428127502718],[95.41471712727699,25.729436498151657],[96.07574550905481,25.855041252460023],[96.86081638050848,27.47916677467353],[97.47402026557961,27.68946953432849],[97.53302472824045,26.77067166333155],[98.2939142517208,26.947766359495663],[99.10075353777408,27.784232307920597],[100.15008610587685,28.247601688167975],[100.23004221606507,28.210508345408897],[99.91550339188105,28.35642960632355],[99.59326527651024,28.48947972168504],[99.26401699412405,28.609357088623195],[98.92847214272612,28.715788630048895],[98.58736663815846,28.808530823967992],[98.24145637255121,28.88737063724125],[97.89151470240272,28.95212635483335],[97.81478208520505,28.963102703493703],[99.7826551262627,30.710228602871624],[100.87355129135084,31.257648945498918],[101.82081648904261,30.93574386446696],[102.29278479683003,29.862816529127493],[102.76896074522925,26.97572070705019],[102.77069942887357,26.189534007367786],[102.61499277743447,26.380352182933937],[102.39591700460414,26.624437564670366],[102.1642948906957,26.85944555726675],[101.92053239104912,27.084874970966844],[101.66507002079611,27.30024122878099],[101.39838254498133,27.505077805949224],[101.44017588632471,27.472977292181014],[101.43104773234951,27.44083312990493],[100.64111142710645,26.734083221574338],[99.97819698508665,26.220139392744784],[98.96544868885121,25.771658507358467],[98.39101729892656,24.51057854114109],[98.64675123955038,23.655446778563284],[98.96532674584901,23.03170721433319],[99.77419782776326,23.109946891185654],[100.08930098439934,22.313053531334543],[99.86997254279937,21.772376085213192],[99.75669687414528,20.755713963799685],[98.82947721865231,19.92358777979811],[98.56232041461783,18.929832738417666],[98.85021308024558,18.67233844961896],[98.81911548911366,17.418887907159338],[97.98571480690815,17.875350401562102],[97.72198436355616,18.51091300061467],[96.56610643470073,18.295234146211165],[95.66685657719543,17.845793754291247],[94.72869888590303,15.93759479938528],[94.62325904005588,15.117517418335687],[94.49661859090914,14.9264264375211],[94.2329356427731,14.997516829585816],[94.54506027161722,14.91336629048408],[94.86044384999124,14.8419149370309],[95.17855003491673,14.783285989197966],[95.49883877930156,14.737580540560776],[95.82076705953635,14.704877392767877],[96.14378961177856,14.68523292589776],[96.46735967491439,14.678681005370393],[96.79092973805022,14.68523292589776],[97.11395229029243,14.704877392767877],[97.43588057052722,14.737580540560776],[97.75616931491206,14.783285989197966],[98.07427549983754,14.8419149370309],[98.38965907821157,14.91336629048408],[98.61474292717025,14.974050150335547],[98.6123553709396,14.917580686824648],[98.9018914676402,12.76950733876528],[98.82744324989679,11.782777361734773],[98.41164684379412,11.123159494930446],[98.07818860034847,11.204798886764936],[97.66837722202027,11.286327902950763],[97.2551727429431,11.34991692750059],[96.83941463376578,11.395433011554518],[96.42194989080215,11.422780867958124],[96.00363056258458,11.431903194281443],[95.585311234367,11.422780867958124],[95.16784649140337,11.395433011554518],[94.75208838222605,11.34991692750059],[94.33888390314888,11.286327902950763],[93.92907252482068,11.204798886764936],[93.9217267993824,11.203000459018277],[93.43797039082543,12.21863412921468],[92.72995482926737,14.74397917859975],[92.61512144999601,15.672134827153615],[92.73962017097207,15.602923855409529],[93.02758403207206,15.457884196184894],[93.32140834911307,15.324603914605992],[93.40693726870224,15.289929293406793],[93.49383570428178,15.43024318013819]]],[[[47.20058074917914,16.70082884248852],[44.84095514867027,18.015758567158613],[43.775107594668405,18.67658492121833],[42.963731924888975,19.426263733695837],[42.681763180122196,20.037934160467326],[42.64325816121531,21.142163398390768],[42.790106339741556,21.66681415090051],[43.28485842183838,22.13508044919293],[43.96766941135363,22.386232445061207],[45.52775550474018,22.65187463418283],[46.485366928725426,22.685844565928452],[47.791144570659746,22.52097677701914],[49.00404812483085,22.200126164158167],[51.316510438456746,21.350560367345626],[52.33825858756022,20.771053188927077],[53.102868501893,19.93908473476398],[53.35654265745496,19.1477349824936],[53.34429469921006,17.621319104498106],[53.52173301616169,16.85027732637155],[54.07765767205231,16.051824997385772],[54.8275919104768,15.482746372311533],[56.513594287788514,14.544585282623235],[56.90712733120683,14.194819674081979],[56.41837816970725,14.118575659770213],[55.21034178809789,14.33121744053456],[52.06062652611547,14.962838236348093],[50.40376546802009,15.375646659252856],[48.583845407529836,16.02769363809165],[47.20058074917914,16.70082884248852]]],[[[12.274611810491805,21.49694161457795],[12.288373843283546,21.081248708816638],[12.001841765396382,20.808522972592275],[12.57890991034375,20.756025306042762],[12.677008777621936,21.253572702473324],[13.135984415828455,21.486136887970005],[10.884891984081456,18.11159712327388],[10.48098555429227,19.223716457716346],[10.044291147242767,20.5685180186436],[10.376917059717115,21.107788364939672],[10.23811489154196,21.45088938310472],[9.98063086221529,20.75900119174237],[9.017492339870227,21.342278939383593],[8.626321073865547,22.5067236470691],[9.213000393035449,22.756594448932074],[9.93307631085879,22.578779885438532],[10.385672911789655,23.46272676283827],[10.65272530322001,23.57831927486462],[11.038090353221943,23.375145035632602],[11.188244688257816,22.916378486982396],[11.585880261482798,22.395406614735744],[11.452693593216841,21.969024128003586],[11.765178421134427,21.621541663393494],[12.274611810491805,21.49694161457795]]],[[[9.560709513678486,24.90663067990575],[9.156253212126304,25.192633291280057],[9.237383184135469,25.281261712229732],[9.675854314475464,25.35404263061475],[9.938140729410735,25.022877706888586],[10.035139112595873,24.789489515422652],[10.460238392339221,24.685907261355172],[10.528170534443149,24.562086616124112],[10.333280778597995,24.22880491982742],[10.141905683989322,24.512861993702604],[9.817783788752177,24.526254420880598],[9.560709513678486,24.90663067990575]]],[[[139.87083057130616,-56.27431414909144],[141.57538438502147,-56.03025200968545],[144.58509045475137,-56.09466547345005],[145.844605267562,-56.36691564072637],[146.65314836512442,-57.181588341745],[146.74687735691867,-58.284158019658456],[146.19052237178042,-60.79195830348947],[145.47477749519746,-62.19605291556082],[143.77035491421978,-63.88196529593268],[141.51194847761693,-65.26234296117364],[135.90447478803603,-67.60464906954394],[132.88434812314046,-68.32053429829803],[130.18337372676464,-68.23906503989575],[128.9352905116439,-67.42596884766904],[128.0473615529787,-65.09962805041121],[128.29163739832353,-63.79608455965856],[129.6791877064236,-62.207535208362216],[131.61839641184665,-60.84276116687814],[135.71047707231128,-58.26195531966538],[137.69881416856532,-57.11042722016717],[139.87083057130616,-56.27431414909144]]],[[[97.00356434617295,-7.3306862962851485],[97.65091585759862,-6.959341655190083],[97.81232534424247,-5.470133997042897],[98.39403961090412,-4.248637953047282],[98.7907312526053,-5.372014342168188],[98.40277668059855,-6.465709307626385],[98.4353775914534,-7.1362197571541595],[98.05494222703702,-7.229296219113739],[97.649555495982,-7.3099078888056],[97.2409244821521,-7.3727756324261335],[96.98639826787213,-7.40063654021748],[97.00356434617295,-7.3306862962851485]]],[[[99.05094014641249,-2.6884239616605616],[99.047334625806,-3.21938835192636],[98.46796557894467,-2.8845244923133877],[98.4564199029943,-2.3422598402625217],[98.10104971944835,-2.0790445799500077],[98.36618365925023,-1.7208848412847597],[98.28224754830393,-1.1098458895162124],[98.70682118212486,-0.8634284959181107],[98.91214073592676,-2.005115260486273],[99.05094014641249,-2.6884239616605616]]],[[[99.55949183358995,-1.0178612459386114],[99.36135434643145,-0.09836265059137411],[99.66618315370842,0.4197113050638517],[99.97057034372908,0.7637905967110311],[100.24036319910277,0.7042107068518947],[100.25878309940043,0.29029808482844816],[99.55949183358995,-1.0178612459386114]]],[[[175.93551340900146,-18.44149968481268],[175.42899667794316,-18.36365321245309],[174.93508805711105,-18.236095561080553],[174.45914831336165,-18.054192457656143],[174.00667882142235,-17.81474292619745],[173.58306289461768,-17.516118789937103],[173.19330475277846,-17.15834225834228],[172.8417812595534,-16.743099585211095],[172.53202032096843,-16.27369165000554],[172.26651745581557,-15.754924922760956],[172.04659890874714,-15.192948492595434],[171.87233624986146,-14.595044611798563],[171.74251414300684,-13.969381538267521],[171.65465021090122,-13.32473839980887],[171.60506385430168,-12.670212421177764],[171.58898949715268,-12.014919203214527],[171.6007288936133,-11.367696846971784],[171.63383663312655,-10.73682456230094],[171.6813325959304,-10.129765949841204],[171.73593467529437,-9.552946346742026],[171.79030451536713,-9.011572439171168],[171.83729833565903,-8.509500757837044],[171.87021423034318,-8.04915971765974],[171.88302679915023,-7.631527615626221],[171.87059975188822,-7.256166576032083],[171.82886736507746,-6.921309967582712],[171.75497643312497,-6.623998455786307],[171.64738165512048,-6.360257729545209],[171.50588917583315,-6.125309163300642],[171.3316451541707,-5.913803328584633],[171.1270686380639,-5.720065407697967],[170.89573054857883,-5.538341220631244],[170.64218308858804,-5.3630327674927205],[170.37174626890518,-5.188912906262204],[170.0902603678107,-5.011310000838558],[169.8038148920336,-4.826255031255657],[169.518465879769,-4.630585670698768],[169.23995408856715,-4.422004088153399],[168.97343668463768,-4.199087596193854],[168.72324448223148,-3.961253588719094],[168.49267561084173,-3.7086823711159864],[168.2838348005392,-3.4422033677123443],[168.0975253930833,-3.1631517248530625],[167.93319884513733,-2.8732034744829065],[167.78896402215503,-2.574198174279251],[167.66165610037882,-2.2679583061827224],[167.54696248770895,-1.956114712264369],[167.439600907134,-1.6399469897594732],[167.3335427103586,-1.3202470651988614],[167.22227265256717,-0.9972131283361726],[167.09907481547992,-0.6703797430183009],[166.9573331765671,-0.3385882915743332],[166.7908345537364,2.2455206147220376e-14],[166.59406136988775,0.34784829507284026],[166.36246192978044,0.7079476470291168],[166.0926867090149,1.0836839233854922],[165.78278051775445,1.4786743158967892],[165.43232228170996,1.8965813498300468],[165.04250650477852,2.3409136893055975],[164.6161631293489,2.814823952307986],[164.1577153441771,3.3209141155782613],[163.67307772893886,3.8610588486710467],[163.1694997747069,4.436256247283716],[162.65536208838736,5.046513966287301],[162.1399343123622,5.690776767525761],[161.63310485990692,6.366899139374146],[161.145092952948,7.071664105571439],[160.68615321133154,7.800846838240164],[160.26628232426467,8.54931943929827],[159.89493633416913,9.311191434242817],[159.5807659976273,10.07997924580396],[159.3313767468307,10.848797212395695],[159.15311907947472,11.610562532509743],[159.0509147817721,12.358206725279294],[159.02812416136834,13.084886631286759],[159.08645926756694,13.784188463502135],[159.22594768120393,14.450318817426773],[159.4449506318142,15.078276790160578],[159.74023775688298,15.664001453658079],[160.10711866699845,16.204488976482274],[160.5396286700343,16.697873853857175],[161.030762739346,17.14346917668078],[161.57274842428973,17.541761812988906],[162.15734532051977,17.894359887549587],[162.77615637482126,18.20389202160627],[163.42093504845874,18.473860316973468],[164.08387240593012,18.708451821167593],[164.75784954234865,18.912315918366627],[165.43664323427544,19.090317471157828],[166.11507597537036,19.247277346781157],[166.78910524941355,19.38771303175649],[167.45585061598678,19.515592296253317],[168.11356062479916,19.63411233001498],[168.76152452432052,19.74551552241746],[169.39993609047588,19.8509512336534],[170.02971866591585,19.950390655556305],[170.65232172596566,20.042599341974164],[171.26950005718757,20.12516933821757],[171.883087028101,20.194610174488574],[172.49477350068173,20.24649540544337],[173.10590368504495,20.275658955372013],[173.71729864105416,20.276433332289397],[174.32911710439865,20.242919866219317],[174.94076176993758,20.169279570607262],[175.55083702949645,20.05003209029256],[176.1571614231086,19.88034955881709],[176.7568348097748,19.656332113785126],[177.34635670577995,19.375252367679582],[177.9217886992188,19.035757326431305],[178.4789507228604,18.638018063589357],[179.0136386441062,18.183819809989025],[179.52184940984728,17.676587866375687],[179.99999999999997,17.12134770662792],[180.0,3.038324251750851e-15],[180.0,-0.4950738926845588],[180.0,-18.111495491997236],[179.5074348005811,-18.174890820129654],[179.01001460282586,-18.2462047160645],[178.50686413651326,-18.319085448337066],[177.99792616454738,-18.386326845599243],[177.48405261528725,-18.440153861173485],[176.9670478636764,-18.472534619160943],[176.4496593705037,-18.475506079075604],[175.93551340900146,-18.44149968481268]]],[[[98.53904611868255,1.3268015553206793],[98.4657401437647,1.9855100333023081],[98.10450064267638,2.8745872819373064],[98.65967924597365,2.7256011706182997],[98.93577350213708,1.239269716684888],[98.81042553357877,-0.07471694977930629],[98.44486682648882,-0.07821409712707132],[98.2375973790188,0.7077147333508961],[98.53904611868255,1.3268015553206793]]],[[[98.69058814897947,5.028150845202774],[98.4770604672674,5.882558505281982],[98.45422300387833,6.573135766694493],[98.33385599882351,6.884485780198909],[98.46561928489466,7.256855365070767],[98.73176510095317,6.888012433645117],[99.15410246115925,5.850940043482893],[99.42967320608176,5.020114967215201],[100.16983241004593,4.366527335087577],[100.37980355085963,3.52154412789344],[100.25829777379833,3.4048120053723463],[100.01855608607113,3.4699388566236236],[100.01855615491816,3.469944454980936],[99.91867124977622,3.4970809554400732],[99.31209265918696,3.9277240408229877],[98.92579460903018,4.908808110956243],[98.69058814897947,5.028150845202774]]],[[[103.91961540967499,6.860379141155348],[104.0256517534742,7.013732141864719],[104.16790452836366,6.7751296933748035],[103.91995388162333,8.351883944004083],[104.40470278051548,12.403257049117197],[104.81834052887801,14.502233614239497],[105.53642562504776,16.74718055356249],[106.3175653594858,18.384405606003746],[107.97643799067244,21.024502679953113],[108.6751288586026,22.49706010738323],[109.06624990596858,24.311127703896474],[109.0079339462188,25.874901265709237],[108.43727414877078,28.769490034268216],[108.59904841376559,30.42074330346551],[109.688101480835,32.44980566007809],[111.39121766869393,34.14038609386615],[115.60547076688485,37.01324665354952],[117.9058928328265,37.896733015149906],[120.3332973358735,37.83735918401202],[122.00055558874449,36.90764451807787],[124.51012749676322,34.23522996404241],[125.39049681094164,32.72544557708677],[125.60728336284235,30.8640956127263],[125.13273816744635,29.253233302712605],[123.61088139895509,26.213796018576566],[123.20854851005058,24.592734178664603],[123.41065577454422,22.8306687538356],[124.1207242141535,21.533421757423174],[126.02703122967141,19.432205319517056],[127.02429615505957,18.188374228128442],[128.11871349753525,16.543895282360154],[128.95709153785032,15.054470713033627],[130.4236570060542,12.283595367972984],[130.92003212111072,10.85282563420184],[130.91161848537578,9.249584888329107],[130.40216966785073,7.9703482912842265],[128.91936856753517,5.654457149280368],[127.82332130705385,4.495849699345628],[125.96641372858619,3.3645129687750703],[123.95528522018645,2.6357520574718216],[119.77454252822864,1.5504138639427674],[117.41949631392707,1.1883018951769695],[114.52529187033451,1.2605008867876357],[112.05754325397496,1.7743628617051523],[107.55829944241214,3.3082260268038763],[105.60163521745703,4.465555879943769],[104.69856403448986,5.71653390815794],[104.60134205537851,5.942633736464976],[104.76348004168254,5.565564978963088],[104.9089662019295,5.181866237633702],[105.02918205308318,4.817677225289596],[104.7376975341907,4.998150348909679],[104.57838014662877,5.488666957349531],[104.29813605096317,5.510773125448865],[104.426288773863,5.933416999326781],[104.1741179553159,5.957176714428334],[104.04173169393152,6.387546931253863],[103.91961540967499,6.860379141155348]]],[[[101.52574229869009,22.105353320807996],[102.07609501130987,22.342904089436278],[102.75818156165731,22.358387294498144],[102.9114499578964,22.59085296518533],[103.36860825768146,22.59490035292875],[103.95379555195547,22.90050567913538],[104.16810670410109,22.906379307520435],[104.19855056618619,22.63078779700159],[104.21819850200188,22.318241409718915],[104.22315163527466,22.005201749536432],[104.21349870815804,21.692256709712957],[104.18935268926705,21.379990143804495],[104.15084993040936,21.0689809704932],[104.14116383168184,21.012155509134658],[103.89048581215826,21.074066460501843],[103.69119567132809,21.27825054785631],[103.32021019329949,21.155773195364052],[102.77447631257806,21.43563369386534],[102.20191516111338,21.665549987835785],[101.89791667656975,21.712650774538513],[101.52574229869009,22.105353320807996]]],[[[96.5221310094864,28.16385679537693],[96.17643415547332,28.262489737067007],[96.37648623660466,29.065966652582492],[96.46735967491439,29.067806824963004],[96.82543995131392,29.060555757468553],[97.03681226783986,29.04769554925916],[96.87489549636639,28.715510163786334],[96.5221310094864,28.16385679537693]]],[[[145.43741189170635,33.38842700532981],[146.0903010228118,32.7280276008841],[146.85437323459453,31.232475485652646],[147.02309733421467,30.44665060056661],[146.77235878184902,29.572148638324627],[146.1938477937951,28.887414568209994],[144.74023629399323,27.662823675325573],[143.8171000145251,27.199553132392822],[142.45280725181692,27.05044952908254],[141.08298998102254,27.260710519412232],[138.29991759524296,28.004405954480266],[137.0999010571345,28.485837443335512],[136.3169268556346,29.252811948142075],[136.2293041235643,30.063254330015916],[136.79805266099606,31.72121608008675],[137.39087369195582,32.51832965257113],[138.57196794345455,33.23454199664977],[139.9391514082158,33.6083522131043],[142.84507841353522,33.927362586324946],[144.22199428273137,33.84837657383627],[145.43741189170635,33.38842700532981]]]]}}]}
