{"type":"FeatureCollection","features":[{"type":"Feature","properties":{"role":"schematic accreted hinge","status":"authorial trial"},"geometry":{"type":"Polygon","coordinates":[[[-68.71785614919536,31.093308348090066],[-68.77372944354181,31.083430281500725],[-68.82957753260011,31.077114130256806],[-68.88540917637621,31.073372019497913],[-68.9412310993469,31.071048762299995],[-68.99704745971486,31.068918102331967],[-69.05285960027858,31.06578412639194],[-69.10866609661676,31.060580006496263],[-69.16446310470398,31.052456435761364],[-69.22024499129613,31.0408529141689],[-69.27600520458397,31.025546359340595],[-69.33173731138105,31.006673262694274],[-69.38743609577425,30.98472364859319],[-69.44309859037888,30.96050726624192],[-69.49872490292111,30.93509458342856],[-69.55431871331334,30.909737092635947],[-69.60988735088931,30.885773033941355],[-69.66544141411127,30.86452576305887],[-69.72099395743535,30.84720256097053],[-69.77655933109227,30.83480165094368],[-69.83215180825937,30.828034562467288],[-69.88778416200455,30.827269808418414],[-69.94346635747921,30.832502211871205],[-69.99920450428797,30.84335025729829],[-70.05500017547936,30.859081697499217],[-70.11085015170555,30.87866548615853],[-70.166746600865,30.900846091579215],[-70.22267766234998,30.924234533836756],[-70.27862837501597,30.947409206584],[-70.3345818695885,30.96901879451221],[-70.39052073675869,30.987879436239407],[-70.44642847749759,31.003058723436663],[-70.5022909383324,31.01394013740444],[-70.55809762971192,31.020263027203253],[-70.6138428212692,31.022135113662934],[-70.66952630751175,31.020016616442014],[-70.72515374628836,31.01467728376245],[-70.78073649473616,31.007129687935613],[-70.83629090520633,30.99854397348684],[-70.89183709502417,30.99015066809623],[-70.94739726301925,30.98313908049846],[-71.00299368378958,30.97855914432736],[-71.05864655783762,30.977234297796713],[-71.11437192347546,30.979692137591428],[-71.17017983943335,30.986118217372148],[-71.22607302452924,30.996336582068704],[-71.28204609620335,31.00981857496661],[-71.3380854903376,31.02571928253725],[-71.3941700794886,31.042938857964717],[-71.45027244412587,31.06020405069525],[-71.50636069836422,31.076163712538182],[-71.56217329705909,31.089497022158422],[-71.57790296643999,31.100654337202023],[-71.59410982126481,31.104869074072123],[-71.64965817882788,31.100751573713183],[-71.7045726864974,31.090809663145503],[-71.75884715011978,31.075076745100827],[-71.81251626246929,31.053960419957537],[-71.86565359807831,31.028214348206873],[-71.91836665467308,30.998884152445928],[-71.9707892855437,30.967231489274276],[-72.02307207424099,30.934642093241052],[-72.0753713710735,30.902524819460194],[-72.12783782540797,30.872209395233625],[-72.14789301907886,30.848155740112674],[-72.1540237776305,30.82829552645076],[-72.19310602632433,30.808151029625133],[-72.24609630993771,30.790740449593866],[-72.29993573446461,30.77780396237092],[-72.35453749815039,30.768856758743894],[-72.409755593099,30.763115190113417],[-72.46539720924865,30.759564601606545],[-72.52123881941368,30.757044852218982],[-72.57704472501241,30.75434689793667],[-72.63258664277029,30.75031296400397],[-72.68766281886411,30.743932556344102],[-72.73861396460276,30.734965608164902],[-72.74878203992469,30.728974969494814],[-72.7607304843883,30.71712406107146],[-72.81144846436426,30.69402103538811],[-72.86133927523379,30.667992764960726],[-72.91063584252886,30.63989867670157],[-72.95963952824361,30.61083932148379],[-73.00869820853278,30.582075295138214],[-73.0581805632692,30.554933268750524],[-73.10844855176944,30.530706321398984],[-73.15983018144202,30.510556208108135],[-73.21259464551107,30.49542504974798],[-73.26693171915237,30.485963211602343],[-73.32096096515532,30.482901855774962],[-73.33502032527059,30.495162413316145],[-73.35339141631381,30.51063977483812],[-73.41475402590265,30.520265915321477],[-73.47742807988314,30.53353206788406],[-73.54098617157099,30.549217751012243],[-73.60495826928808,30.56599174435249],[-73.66886601305112,30.582509404389562],[-73.73225765403974,30.597510478710323],[-73.7947409628922,30.609909950293762],[-73.85601155697378,30.61887498346419],[-73.91587442569154,30.623882114991236],[-73.97425694706156,30.624750354864588],[-74.0312123500243,30.621647714520687],[-74.06971983145186,30.619886555424983],[-74.09372151861498,30.618320002567888],[-74.13389332575055,30.60906441088434],[-74.18700397036382,30.595029153289165],[-74.24035627788452,30.581568643390174],[-74.29442161574063,30.569763441248355],[-74.34960855537572,30.56054449158526],[-74.40622824054567,30.55461444904478],[-74.46446725668804,30.552386795610513],[-74.52437007807534,30.55394747493459],[-74.58583245077831,30.5590420356985],[-74.64860625736026,30.567089313056847],[-74.71231555802066,30.577220634848974],[-74.77648266833121,30.58834157495774],[-74.82773488844569,30.60355629047485],[-74.87006570474323,30.61893612731148],[-74.92401436666272,30.62598737726484],[-74.98459926964699,30.62596100383482],[-75.04277343937136,30.62121399311527],[-75.09821913654649,30.611144911735728],[-75.15078516624317,30.595477790712117],[-75.20049872153726,30.57428302820408],[-75.24756370192351,30.547972353914968],[-75.29234561648062,30.51726824418602],[-75.33534425416408,30.483150128693996],[-75.37715627255017,30.446781502343374],[-75.41843063888793,30.40942351438504],[-75.45982039157919,30.372341639517533],[-75.50029839396123,30.33735075468255],[-75.52331640992428,30.312187167589947],[-75.54829499682958,30.28829934051609],[-75.59371747846917,30.260146433727897],[-75.64129487647098,30.23570466634586],[-75.69091554519619,30.214774805374713],[-75.74229010482865,30.19685474200276],[-75.79497702904453,30.18118459596633],[-75.84842001622502,30.166811757913973],[-75.90199432795144,30.152670805815685],[-75.95505857510649,30.13767209180228],[-76.00700797835681,30.12079213604988],[-76.05732497073372,30.10115883371152],[-76.10562317094,30.078124887532375],[-76.15168123731664,30.05132378950661],[-76.19523239708637,30.020807421334315],[-76.21850234225333,29.995060137607016],[-76.23857771807204,29.9651460013632],[-76.27520844995647,29.924504101219263],[-76.31113998917378,29.882838028056614],[-76.34713813096225,29.841313000088633],[-76.38399822699137,29.801137339890722],[-76.42248642463791,29.76347298799241],[-76.46328291435361,29.729349050578985],[-76.50693147381003,29.69958500200089],[-76.55379908724937,29.674729429869494],[-76.60404864273845,29.655019021841447],[-76.65762673074583,29.640360939451497],[-76.71426745435194,29.630339925654514],[-76.77351198816737,29.624249589172436],[-76.83474246500131,29.621145449067814],[-76.8942111088394,29.621442034160573],[-76.94869725843563,29.624856445203452],[-77.00586657378336,29.625534755894005],[-77.06736534981759,29.6217731782924],[-77.12712376124993,29.61550139605181],[-77.18466174552363,29.606039699893707],[-77.23969582577494,29.592991601318047],[-77.29215766469929,29.576268768675092],[-77.34219571645819,29.556091980026114],[-77.39015984811485,29.53296807865487],[-77.43657016106994,29.50764475193088],[-77.48207249593443,29.481046650310166],[-77.52738414376743,29.454197792716055],[-77.57323402911675,29.42813625860388],[-77.62030202363376,29.403827764104882],[-77.669162074564,29.382084811904043],[-77.71536641347805,29.36613265418995],[-77.76173277334343,29.3541665619029],[-77.8153760235104,29.34269522840735],[-77.87338790937298,29.33321975404313],[-77.93329432874214,29.326300684451965],[-77.99448114691565,29.32110056255489],[-78.0561900925463,29.3165904133181],[-78.1175729848303,29.31162407168222],[-78.17775338013978,29.305021866505395],[-78.23589097801816,29.295657257886518],[-78.29124385217153,29.28253980997347],[-78.34322367766244,29.264888173914574],[-78.39143961952593,29.242187529721136],[-78.43572740447904,29.21422712922872],[-78.47616125393914,29.18111510246539],[-78.51276038374742,29.143433599182522],[-78.54143259684294,29.104481384108393],[-78.567082406995,29.061773716391354],[-78.59594607367968,29.01421055352464],[-78.62410041339535,28.965768422312387],[-78.65242135717087,28.917570808726342],[-78.6817114009261,28.8706465194954],[-78.71264069388513,28.825854071488813],[-78.74569875887987,28.783819655364834],[-78.78116043947337,28.744893422056574],[-78.81906858136594,28.709127427668506],[-78.85923470131023,28.67627689774137],[-78.90125756119242,28.645824666746265],[-78.94455823553308,28.617026855341646],[-78.98842902475158,28.58897620772236],[-79.03209250894552,28.560678152796843],[-79.07181821414214,28.532928692002027],[-79.10545185446693,28.505256396741988],[-79.13923556243573,28.472490590968114],[-79.17426162834714,28.433743727581856],[-79.2062444965952,28.391303717622826],[-79.23520152309517,28.34519383756883],[-79.26139407125588,28.29573451666619],[-79.28531234948215,28.24352486813654],[-79.30764238040089,28.18940264182444],[-79.32921769050381,28.134385610969385],[-79.35095949510118,28.079598828225215],[-79.37381001931813,28.026193276110636],[-79.39866408040099,27.97526210998774],[-79.4263041357939,27.927760892580633],[-79.45734368593779,27.884437928229737],[-79.49218325003666,27.8457800407367],[-79.52314467690299,27.817052278824395],[-79.55527488086952,27.794009496609178],[-79.5986839895932,27.769931982985714],[-79.64737678982563,27.74795760458987],[-79.69838546749057,27.72869373665095],[-79.75084098835127,27.711121490210566],[-79.80381808503658,27.69415894785664],[-79.85640522973006,27.676743129813843],[-79.90777330249345,27.657909875555152],[-79.95723766475389,27.636865534061723],[-80.00430881091539,27.61304500493089],[-80.04872762919103,27.586151733229574],[-80.0904824955326,27.55617664985137],[-80.12980685697647,27.523394660216624],[-80.16715751129115,27.488338996913484],[-80.20203200519956,27.452533466709184],[-80.22815902648318,27.421595063485643],[-80.25502434227108,27.389725602467767],[-80.29105599351836,27.35350441841656],[-80.3290117876482,27.319440384808154],[-80.36953622806874,27.28824760709836],[-80.41308055295096,27.260423992493916],[-80.45986295461559,27.23620717674137],[-80.50984656369887,27.215550511226844],[-80.56273689222768,27.19812100726889],[-80.61799898740094,27.18331943132004],[-80.67489308584021,27.17032102675597],[-80.73252617284528,27.15813374200135],[-80.78991563758065,27.14566949720823],[-80.84606026247003,27.131823027304293],[-80.90001317178375,27.115552272632414],[-80.9474489213245,27.098485496504008],[-80.98686765212179,27.080070924548792],[-81.02533639625756,27.054273338468438],[-81.063600855293,27.020857048634824],[-81.09767314813229,26.983024742083312],[-81.1279418726619,26.941189911417823],[-81.15502911858124,26.896011422636736],[-81.17974163841248,26.848342280785463],[-81.20300833354185,26.799164052408965],[-81.22580896373138,26.74951195059797],[-81.249099624364,26.700396309550495],[-81.2737407267981,26.652726463690534],[-81.3004329653085,26.607242874152448],[-81.3296660950936,26.56446272059102],[-81.36168434219546,26.52464314273267],[-81.39647099881287,26.487764951790176],[-81.42667499836497,26.458956759872443],[-81.45616256194845,26.433513317378416],[-81.49384472037862,26.403800180584607],[-81.53421350342876,26.37285569558391],[-81.5741629540685,26.341497925208877],[-81.61279687033982,26.30882023079748],[-81.64930425080598,26.274003240601825],[-81.68302749916099,26.236383394323394],[-81.71351900725892,26.195509607416078],[-81.74058163523938,26.151183699426003],[-81.764289856643,26.10348147371738],[-81.78498986011218,26.052752807950057],[-81.80327856877338,25.99960070667765],[-81.81996320907214,25.944840863178563],[-81.83600458833308,25.88944476065969],[-81.85202051190012,25.834813385147694],[-81.85814246687634,25.790826043657688],[-81.8660854091581,25.748727023131817],[-81.88860915000339,25.700651721468343],[-81.9151821666118,25.656519290804503],[-81.94622429867833,25.61673637338134],[-81.9818772300564,25.58143846194833],[-82.02199681181779,25.550482518921914],[-82.06616663352112,25.523460601729187],[-82.11373181396374,25.49973340692982],[-82.16385048296623,25.478481101275708],[-82.21555909653219,25.45876747558947],[-82.26784666452035,25.43961244218608],[-82.31973225651913,25.420067275587932],[-82.37033985289648,25.399286812944446],[-82.41896476223683,25.37659309256468],[-82.45686622061383,25.358576996389502],[-82.48840068865591,25.340268265921456],[-82.52525154363191,25.31213073419058],[-82.56297677177716,25.278956525239852],[-82.59890585872398,25.244137955745245],[-82.63380637410734,25.208382914286556],[-82.66857856738606,25.172520684710992],[-82.70418135272266,25.137433789559402],[-82.74155358509738,25.10398543104316],[-82.78153671538475,25.07294813618891],[-82.82480476094632,25.044939140021878],[-82.87180693344311,25.020367537882116],[-82.92272728422351,24.999397338807487],[-82.97746443942663,24.981929323477278],[-83.03563299652119,24.9676031485531],[-83.08818874455832,24.963423043740253],[-83.14030995060304,24.96208156484112],[-83.20161632339372,24.95356389083448],[-83.26492205293972,24.94275971617092],[-83.32686936020211,24.93075583708346],[-83.38639183835558,24.916626904640037],[-83.44257510895964,24.89958232778547],[-83.49472232711358,24.87902223554207],[-83.542403343301,24.854579081256116],[-83.58548367319868,24.826141786793176],[-83.62413100574292,24.79386064953392],[-83.6587987543026,24.758132685202472],[-83.69018797387598,24.719568550755085],[-83.7191906719415,24.67894357883045],[-83.74467384311302,24.63918501600919],[-83.76267601951389,24.605725564610644],[-83.78271103718089,24.570402721425584],[-83.81118662559548,24.52966296178037],[-83.842005511585,24.49086648305107],[-83.8756437129994,24.45440516083491],[-83.9122962129326,24.420438422399222],[-83.95186399436827,24.388882686929726],[-83.9939640360462,24.359419963640946],[-84.0379614976101,24.33152491089301],[-84.08302165579762,24.30450821894262],[-84.12817765513985,24.277572912942002],[-84.1724089144265,24.249879182047227],[-84.21472417910351,24.22061270052068],[-84.25364158441607,24.189660069358368],[-84.28088559907496,24.164130493919057],[-84.3038709693839,24.134146052887367],[-84.33064318087267,24.092450591270822],[-84.35333908753361,24.047587403675376],[-84.37240084112243,23.999900720758706],[-84.38854819157284,23.949950609478023],[-84.40272910814595,23.898474962170592],[-84.41605286248097,23.846337823244607],[-84.42971076174838,23.794467932778165],[-84.44489063900136,23.743792130307984],[-84.4626916373196,23.695168681166358],[-84.48404574597966,23.649325622357523],[-84.50965198295805,23.606808863971406],[-84.53702143688261,23.571084789149033],[-84.56098509266563,23.547616467687117],[-84.59183895799993,23.52388357217411],[-84.63468400886002,23.494415179215295],[-84.68093828392801,23.467459003224604],[-84.72963911261095,23.442303182632436],[-84.77970318588477,23.41814821902249],[-84.83001125670813,23.394169763850304],[-84.8794951689551,23.369582758370658],[-84.92722052645021,23.343701992205748],[-84.97245860665306,23.31599445492846],[-85.01474192265167,23.286119510343237],[-85.05389909029533,23.25395386869553],[-85.09006626992048,23.219599493856794],[-85.11609430951266,23.1922129663247],[-85.1377559310664,23.164832045415807],[-85.16567125295657,23.127697476722215],[-85.19524911233106,23.088622730362182],[-85.22596238669526,23.05033702211396],[-85.25886140733704,23.013564281730538],[-85.29486935403396,22.97894007869304],[-85.33470586758948,22.946958725400755],[-85.37882596276295,22.917931032265432],[-85.42737889147223,22.891956035378694],[-85.48019009655458,22.8689089322481],[-85.53676766614359,22.848446191562452],[-85.59633286904449,22.83002745379903],[-85.65240642546088,22.819788778810334],[-85.70697375895229,22.811446418217017],[-85.76630139713254,22.795405705374286],[-85.82584228319043,22.7756477127637],[-85.88245573539986,22.754000174276285],[-85.93514849246657,22.72983022916061],[-85.98318147426508,22.702668885993933],[-86.02612059352708,22.6722426679518],[-86.06386437825878,22.63849053286066],[-86.09664627293789,22.601564851566067],[-86.1250114769996,22.56181641732071],[-86.14977018176542,22.519764647229515],[-86.17193091319663,22.47605524323165],[-86.18263194755217,22.445135342662656],[-86.19016469136494,22.413983465138923],[-86.20792351744754,22.369251444014285],[-86.22792919309028,22.324815400339286],[-86.25046315922476,22.281801862423485],[-86.27598402583745,22.24046806296008],[-86.3046270208641,22.200889482997272],[-86.3361945726664,22.16295458897866],[-86.37017298221241,22.12637437205945],[-86.40577390698039,22.090705923589493],[-86.44199750040808,22.055388176602015],[-86.4777123974919,22.01978699737895],[-86.50507868521305,21.993718778540394],[-86.52507776372046,21.970133036546454],[-86.54675836134945,21.93350010932574],[-86.56667037068179,21.88947072762684],[-86.5814161571205,21.842960343804048],[-86.59086062946595,21.793903036363226],[-86.5952278336574,21.74240475132212],[-86.59509046046189,21.688738573930376],[-86.59133269976972,21.63332740223534],[-86.58508931162939,21.576715273674353],[-86.57766562611324,21.519529446748514],[-86.57044464072962,21.46243605048794],[-86.55389271520859,21.426323622141293],[-86.53533590556299,21.39633069930737],[-86.53038652587401,21.347482955717684],[-86.53218868832478,21.296337733877976],[-86.53920407932698,21.247296810935588],[-86.55151161422417,21.200393699514247],[-86.5688237506253,21.155513176343593],[-86.59051476571209,21.11240272665679],[-86.61567441379636,21.070694447226632],[-86.64318284461315,21.029935643001373],[-86.67180104599805,20.98962567732533],[-86.69526245018483,20.960256337134666],[-86.70891653979854,20.94757579472965],[-86.72341180555298,20.922101022725993],[-86.74167168550177,20.87763571219895],[-86.75629925308859,20.831995885078022],[-86.76719672666958,20.785149735994214],[-86.77463040647253,20.73718296664705],[-86.77920934028657,20.68829203193308],[-86.7818369475225,20.638768742181966],[-86.78363938234227,20.58897735646931],[-86.78587621181482,20.539325869238752],[-86.78666660508188,20.4989220570494],[-86.78099291064248,20.48504082328731],[-86.78032267485888,20.463383140264057],[-86.79224606435622,20.417103238729393],[-86.80958941840484,20.372147661758593],[-86.83247312285691,20.32854531329595],[-86.86062991718899,20.286229756812286],[-86.89341864731206,20.245042812889803],[-86.9298663337202,20.204745249853055],[-86.96873540592716,20.165033691599202],[-87.00861103669689,20.12556237122942],[-87.04473341236871,20.098127868092046],[-87.07355614423942,20.0875255445179],[-87.10040942683419,20.062582396379195],[-87.12650160606741,20.018517830006168],[-87.14733942911955,19.973597465281294],[-87.16248205998193,19.92775086950644],[-87.17188045826312,19.880970679073442],[-87.17587398614805,19.833311959645705],[-87.17515753442416,19.784886996495363],[-87.1707217786177,19.735855884772995],[-87.16377124454944,19.68641358029106],[-87.15176635184125,19.659533940570526],[-87.1364193767723,19.642332848975244],[-87.12449751349774,19.602601744750366],[-87.11593125342836,19.55411154774789],[-87.11058203367024,19.505885658199645],[-87.1088833956912,19.457960722693834],[-87.11089435264871,19.410342189524155],[-87.11629468054468,19.363003808369196],[-87.12441003529828,19.31588973144237],[-87.13426495585189,19.268919024136572],[-87.14411861780745,19.22788696488886],[-87.15076762777389,19.21489738028065],[-87.15328311500957,19.19553537950636],[-87.15304686364789,19.147939546878245],[-87.14829519779731,19.10033350416315],[-87.13821384342239,19.052714884957275],[-87.12233174434814,19.005081355886002],[-87.1005633334517,18.957430691535905],[-87.07322167849608,18.90976100104192],[-87.0410014592205,18.862071096305613],[-87.00493304679262,18.814360934710606],[-86.96637343247717,18.785378863841427],[-86.92556664632578,18.767654121162412],[-86.88392682980245,18.73189254337328],[-86.84375728320238,18.68625978235882],[-86.8068813481898,18.640450577778008],[-86.77440585860901,18.59441177394044],[-86.7471201401451,18.54810664884991],[-86.72544405432754,18.50151694391482],[-86.70940424334142,18.45464359003417],[-86.69864032142281,18.40750612723271],[-86.69350605638209,18.378022292399297],[-86.69249433758844,18.367681974161066],[-86.69122033662597,18.339307203537093],[-86.68891297593704,18.291648994873956],[-86.68634011090631,18.244018759228414],[-86.6823012571543,18.196546300904345],[-86.67579864235383,18.14933946277556],[-86.66611766829979,18.102475314787345],[-86.65288492109353,18.05599379317966],[-86.63609927564822,18.00989433581228],[-86.61905723453548,17.98742061756121],[-86.60094854137054,17.98274828298114],[-86.57698962687782,17.955651039478443],[-86.54985176603115,17.911917805233962],[-86.5238237654581,17.867992393602854],[-86.50025065529697,17.823646605162054],[-86.48038533924417,17.778668419632286],[-86.46528930577718,17.732878554159104],[-86.45574741315912,17.686144557233654],[-86.45220333453935,17.638391431227607],[-86.46297682091742,17.630870118535352],[-86.47826723817857,17.624565802441968],[-86.48867427702305,17.576058178483706],[-86.5023171168621,17.52376440169437],[-86.51866704365779,17.470822701540165],[-86.53630913591644,17.417568632942753],[-86.55377084619941,17.364352453134014],[-86.56962742245634,17.31151408171109],[-86.58260338311484,17.259358751389613],[-86.59658611426993,17.226610479793653],[-86.61022233464905,17.213648605320653],[-86.61213976709783,17.183622324959515],[-86.60304797079411,17.136405102210365],[-86.58942677823232,17.09060029973314],[-86.57197486784662,17.045989907196088],[-86.5516565833235,17.002272872659614],[-86.52962120740797,16.959090539896305],[-86.50710843758208,16.916056337158743],[-86.48797876628221,16.880549769865],[-86.4811855679293,16.87480878267272],[-86.47271086724342,16.86112935640393],[-86.45560543684272,16.816428284600242],[-86.44214919935928,16.770304937406014],[-86.43230044629256,16.722775526094953],[-86.42567159634835,16.67399087288502],[-86.42155738942138,16.62422556597502],[-86.41898814534927,16.57385741754017],[-86.41729216250873,16.524503078791597],[-86.42939021927835,16.508877392900374],[-86.43643802844186,16.49289335901037],[-86.42425668333307,16.445595855492083],[-86.40792538723264,16.40027429419619],[-86.38675031416211,16.357258689151013],[-86.36035033354858,16.316729645828627],[-86.32868993485006,16.278702616584088],[-86.29208623675258,16.24302471073427],[-86.25118951859555,16.209384319236992],[-86.22420904090941,16.209891612259327],[-86.19564842220912,16.21665230454937],[-86.14763366194434,16.19217760380568],[-86.09846657707006,16.164824851001324],[-86.05098285216869,16.136511815595334],[-86.00629131391736,16.10661236799487],[-85.9652847747892,16.07462356256757],[-85.92857819045862,16.040200061942926],[-85.89646822496593,16.0031764592698],[-85.86891731375647,15.963575874931673],[-85.84556340957066,15.921604233704011],[-85.82575459494772,15.877630695815673],[-85.80860581051805,15.832155748342092],[-85.79307323672309,15.785769391008134],[-85.77804051386032,15.73910260661041],[-85.76241009476314,15.692775832917581],[-85.74519265929162,15.647348404904722],[-85.72558770014554,15.60327288618995],[-85.7030490930117,15.560857851706757],[-85.67733063033657,15.520242040652928],[-85.6485080350982,15.48138191631062],[-85.61697576293435,15.444053617368324],[-85.58341881621179,15.407869151012687],[-85.54876169295069,15.372305556978224],[-85.51409833859498,15.336744758225375],[-85.48060843024939,15.300520991080864],[-85.44946638957343,15.262972139412641],[-85.4217501063233,15.223491023165174],[-85.39835640741782,15.181572724465017],[-85.37992981392526,15.136854362628174],[-85.36681012131109,15.089144319583053],[-85.35900289053444,15.038438720008575],[-85.3561751616211,14.984923925266775],[-85.35767673931998,14.928964839651007],[-85.36258541156809,14.871079880952815],[-85.36977260716185,14.811904463650121],[-85.37798442784448,14.752145712903024],[-85.38593182441468,14.692531806929528],[-85.39238301282617,14.633759779453822],[-85.39625108924199,14.576445762365443],[-85.39667020427041,14.521081490711722],[-85.39557306800056,14.504980138209275],[-85.36756015668297,14.460748173974233],[-85.3277497491476,14.381280961398245],[-85.29616491081549,14.29835451133648],[-85.27310063602766,14.212772099137807],[-85.25876849328527,14.125361511395328],[-85.25329501231217,14.036966945186725],[-85.25672091982126,13.948440797377279],[-85.26900121285968,13.860635425191116],[-85.29000605077033,13.77439495750867],[-85.31952243987506,13.690547233924136],[-85.35725667893074,13.609895945590768],[-85.4028375281762,13.533213048384006],[-85.45582006030064,13.461231514999202],[-85.51569014783765,13.394638488338957],[-85.58186953823804,13.334068893989762],[-85.65372146511474,13.280099564783738],[-85.73055674181704,13.23324392542421],[-85.81164028151612,13.193947279954825],[-85.89619798632754,13.162582739493809],[-85.98342394662562,13.139447822163282],[-86.07248789060169,13.124761751537818],[-86.16254282327179,13.118663474241513],[-86.2527327935457,13.121210411560998],[-86.34220072762723,13.132377954140074],[-86.43009626692373,13.152059703005458],[-86.51558354879907,13.1800684543705],[-86.59784886890196,13.216137919900936],[-86.67610816443184,13.259925168429229],[-86.7496142585578,13.311013769494334],[-86.81766380726982,13.368917613581631],[-86.87960389121076,13.43308537855975],[-86.93483819650908,13.502905606569705],[-86.97264708500211,13.56184361536289],[-87.09451585160478,13.490963816197182],[-87.12773858840404,13.527025289330995],[-87.16136142294575,13.56285292650535],[-87.1946242154856,13.59888944308962],[-87.22685546792017,13.635526357314001],[-87.25751483827781,13.673079100786387],[-87.28622637120004,13.711767489158104],[-87.31280029955863,13.751702845225429],[-87.33724202632075,13.79288262321208],[-87.35974773723578,13.835192879283339],[-87.38068697043038,13.878418404863526],[-87.4005733233354,13.92225982356974],[-87.42002525652578,13.966356485986422],[-87.43971960823845,14.010313611407112],[-87.46034091983445,14.053731847706386],[-87.48252995838122,14.096237266878836],[-87.50683488711498,14.137509792418737],[-87.53366837110327,14.17730816433712],[-87.56327352237584,14.215489778564546],[-87.59570100973357,14.252024073056907],[-87.6307989210604,14.286998550891315],[-87.66821611965747,14.320617004839782],[-87.70741893854539,14.353190009627435],[-87.74772016941043,14.385118247327554],[-87.7883184866597,14.416869698034551],[-87.82834575717685,14.448952133158636],[-87.86691916856718,14.481882666049366],[-87.90319479600755,14.51615632202226],[-87.93641913874481,14.552215671031849],[-87.96597529502608,14.590423512647016],[-87.99142079721332,14.63104041507767],[-88.0125146720766,14.674208597934724],[-88.02923198854162,14.719943231921366],[-88.04176496150667,14.768131735954936],[-88.05051054480631,14.818541117899198],[-88.05604531496319,14.87083286730075],[-88.05908926585235,14.92458440572414],[-88.06046085134349,14.979315667928695],[-88.06102618248714,15.034519054764397],[-88.06164567027157,15.089690787689527],[-88.06460113556744,15.146762843034756],[-88.08595845592518,15.23219657746014],[-88.10317276857684,15.314786361425615],[-88.10684168112988,15.366303703900263],[-88.11326768457975,15.41646846523525],[-88.12242406946888,15.465294372888668],[-88.1340830593441,15.512893622173534],[-88.14783792189591,15.559466024107275],[-88.16313703691601,15.605282338353538],[-88.17932760173468,15.650662900312792],[-88.20954343768695,15.723738570541885],[-88.23523116033913,15.799484937895855],[-88.24679767049945,15.847499584970643],[-88.25619392655369,15.895262778300445],[-88.26342909548292,15.94390082169203],[-88.26828530164869,15.993501536606837],[-88.27075193497764,16.044068766714854],[-88.27103237416384,16.095519724768998],[-88.26953615714939,16.147688279527255],[-88.27495203917384,16.219930000293566],[-88.2779690821222,16.297284982986262],[-88.27305467784404,16.354618240958708],[-88.26774128709978,16.406531915849797],[-88.26468766648394,16.45771162485948],[-88.26474804466626,16.50788126878061],[-88.26865663397845,16.55680372469047],[-88.27697911218867,16.604296335407714],[-88.29007437734883,16.65024309128812],[-88.31158378474326,16.70505987191699],[-88.33909302528087,16.769381985791878],[-88.36605141194458,16.82279641716389],[-88.39409512542468,16.864925431711395],[-88.42529628709129,16.906258596731302],[-88.45873419255541,16.947025876792196],[-88.49339844100288,16.987480292333167],[-88.52824899056613,17.02788299626831],[-88.56227771383728,17.068487844709043],[-88.59501412727425,17.11119020121342],[-88.63104004981265,17.178884901443492],[-88.65986143422273,17.247382910089843],[-88.67996175075153,17.29211806797998],[-88.69640255177228,17.337526808196404],[-88.70928545506496,17.383591159808827],[-88.71893629940583,17.430251480738075],[-88.72587608851299,17.47741183961611],[-88.73077935095168,17.524947776863403],[-88.73442271291336,17.572715894850518],[-88.73965304041879,17.631211382367763],[-88.7461225215044,17.704665397244256],[-88.74963798319384,17.767418406608748],[-88.75279502569025,17.814989637026432],[-88.75810108275302,17.862298990262506],[-88.76578405451957,17.90931867148695],[-88.77584681653204,17.95604812376021],[-88.78806441475466,18.002514402989437],[-88.8019970239641,18.04877068329326],[-88.81701784288026,18.09489297415175],[-88.83393864633109,18.15402792069943],[-88.8496332864102,18.225961070534968],[-88.86085898353232,18.285290819387264],[-88.8688385810336,18.332462271997112],[-88.87367358567501,18.37983223515345],[-88.8747110762048,18.427442460332973],[-88.87148889131217,18.4753223553291],[-88.863771381828,18.52348659504403],[-88.85157092305698,18.571933718965443],[-88.8351537090471,18.620645830677503],[-88.81548184157299,18.677056404776813],[-88.79226704624352,18.747640417173265],[-88.76435028769964,18.809879996765016],[-88.73517094613237,18.85769429619141],[-88.70604395607677,18.905502753855426],[-88.67807263917535,18.953296938757976],[-88.65229925231095,19.001069585265345],[-88.62964481458364,19.048814878844674],[-88.61085673378612,19.0965285942657],[-88.59646759456712,19.14420811727219],[-88.58676774118085,19.191852390744103],[-88.58150888779691,19.25889652283426],[-88.57618553892996,19.329773456062465],[-88.5751559854156,19.38148363547799],[-88.57787710731309,19.429411092798354],[-88.58323303462504,19.47753027352284],[-88.59034894214548,19.525776576924635],[-88.59831958718935,19.574083403591597],[-88.60627172630986,19.62238680067067],[-88.61342368501136,19.67062981349099],[-88.61913814047662,19.718766266606195],[-88.62229456541395,19.77404605038575],[-88.61962824254435,19.84831815297261],[-88.61190751133267,19.914881971865498],[-88.60535061682731,19.96209143173286],[-88.59734253344352,20.009078730444497],[-88.58849369232222,20.05593716038199],[-88.57954788262587,20.102780330708423],[-88.5713284818364,20.14973397207453],[-88.56467878650537,20.196926803791964],[-88.56040041728065,20.244481064108985],[-88.55919390145772,20.292503342264762],[-88.55854255792828,20.357169525088718],[-88.5562937896464,20.43316566063322],[-88.55966735209188,20.494141626166194],[-88.56965645033331,20.54547983043697],[-88.58317270210794,20.597630398475893],[-88.5996253216616,20.65045457818389],[-88.6182278864981,20.703768731317332],[-88.63804152887549,20.75735466398893],[-88.65802834710476,20.81097223507823],[-88.6771116324045,20.864373398760684],[-88.69423904723276,20.917316756501606],[-88.70094031897818,20.996063151822188],[-88.69671471001998,21.0834620499548],[-88.6953115800121,21.14337144519175],[-88.69247600408362,21.192616714650832],[-88.6848129654826,21.240372690007476],[-88.67242151531838,21.28667098417894],[-88.65564076436952,21.331616655401078],[-88.6350249842319,21.375380610767706],[-88.61130529117823,21.418187971919046],[-88.58534046563312,21.46030313467647],[-88.55806016902476,21.50201246796958],[-88.5226239918063,21.56443968470496],[-88.47981041914619,21.63824552949403],[-88.44512051411394,21.691027180932878],[-88.41784036434385,21.73201341540538],[-88.39285361716033,21.773889520833787],[-88.37037146350528,21.816737746604172],[-88.35038443495903,21.86055467293092],[-88.33266826928704,21.9052534518499],[-88.31680438424918,21.950671779942382],[-88.30221357554606,21.99658504479482],[-88.28820068800796,22.042723737032574],[-88.27171293179688,22.093808431736434],[-88.24130601877805,22.16973298756904],[-88.20796937870342,22.238648524423684],[-88.1856127442174,22.28150401848456],[-88.16062224243365,22.323135563722463],[-88.13274534584635,22.36342524100172],[-88.1019392125538,22.402352502525957],[-88.06838073529222,22.439998915600945],[-88.03246184119,22.476546131139763],[-87.99477028427619,22.51226716353726],[-87.95605714309455,22.547511496937307],[-87.9171931219263,22.58268493338354],[-87.87460807343501,22.62631345943776],[-87.82315711248107,22.686247752396387],[-87.77679207348288,22.737797465733408],[-87.74381009061094,22.775090260832613],[-87.71476346257575,22.81453193585786],[-87.69008683887765,22.85636046584926],[-87.6700006850807,22.900696435411902],[-87.65449715423287,22.947535194911815],[-87.64334011801431,22.99674691294166],[-87.63607936430095,23.048084525506994],[-87.63207806562951,23.10119905117558],[-87.6305517743231,23.155661248770674],[-87.62986047653308,23.21215576981211],[-87.61338171336322,23.293215416245147],[-87.59315934678975,23.372452469305088],[-87.58889716672387,23.42725550644549],[-87.58285519857793,23.480953657331163],[-87.57447844530361,23.53320371708012],[-87.56339566661552,23.58377677193084],[-87.54943740575187,23.632569077333002],[-87.53264043470953,23.67960458571856],[-87.51323837071654,23.72502900543119],[-87.49163914644011,23.76909581688083],[-87.46839089870345,23.812145190207016],[-87.44413861297637,23.854577209368347],[-87.41641074102213,23.901054366984145],[-87.38032557279593,23.958385143543453],[-87.34723893801497,24.0115564506133],[-87.32408751321239,24.054984775432246],[-87.30280041738861,24.099654117717897],[-87.283574462559,24.145694610430297],[-87.26641520089281,24.19310950738878],[-87.25113165590379,24.241771762601157],[-87.23734445625556,24.291429565121952],[-87.22450690142647,24.341720486603432],[-87.21193764719266,24.392193320254],[-87.19886293538357,24.442336176340344],[-87.18446565457805,24.491608985808202],[-87.1655841785647,24.54241024050451],[-87.13257945643807,24.604585650954217],[-87.09710240306957,24.6608613889854],[-87.06887139971535,24.70115146807313],[-87.03645383541134,24.738505463776413],[-86.99977153187632,24.772866982062514],[-86.95896022801027,24.80432922888006],[-86.9143643035563,24.83313157330209],[-86.86651825410821,24.85964695964799],[-86.81611612461113,24.884360939152586],[-86.76397090977004,24.907843630927477],[-86.71096658779162,24.93071638263975],[-86.65800592472944,24.953615253519178],[-86.60595744187874,24.977153661342737],[-86.54710050893945,25.011656203302685],[-86.4867862189425,25.050271697573493],[-86.43763771099216,25.080939160796355],[-86.39467362273105,25.110482260621495],[-86.35487153753289,25.142398242251595],[-86.31812633127575,25.176610614501413],[-86.28414788215733,25.21290364059981],[-86.25248615549643,25.25094110459658],[-86.22256646086736,25.290292815822436],[-86.19373254937695,25.330467048656143],[-86.16529470486059,25.37094672775668],[-86.13657964627471,25.41122693104099],[-86.10697892521544,25.45085120778068],[-86.07599258616465,25.489444299507134],[-86.03276272148445,25.537986128609774],[-85.9856839291974,25.584996279427653],[-85.9473053008636,25.619334130006102],[-85.90801142730461,25.651519217388177],[-85.86736500933912,25.682638562075155],[-85.82586373156411,25.713085735320558],[-85.7841183577406,25.743344507857156],[-85.74281105950382,25.773955998535747],[-85.70264847766369,25.80548150513398],[-85.66431263464581,25.838463465879176],[-85.62841294377854,25.87338713939025],[-85.59544247482414,25.91064555961817],[-85.56574134653937,25.950510120151733],[-85.5394696492761,25.99310878007669],[-85.5082563315317,26.046802655357233],[-85.47640116575273,26.105209792330196],[-85.45531493547998,26.15742356683453],[-85.43901708638474,26.20878308048885],[-85.42409767623828,26.261302922287943],[-85.40975084734454,26.31430966435807],[-85.39512422323403,26.367091699005226],[-85.37936840762659,26.418940606282863],[-85.36168648561352,26.469192330512122],[-85.3413803230776,26.51726552156128],[-85.3178906443728,26.562694591399246],[-85.29082825941794,26.605155387268734],[-85.25999438769414,26.64448186526889],[-85.22538875088122,26.68067273049702],[-85.1844025179101,26.716561777151473],[-85.12984016569395,26.75912260781027],[-85.0747189403632,26.79593205108881],[-85.02786852912995,26.821527524094712],[-84.97968722775181,26.845959606846684],[-84.9308749863617,26.869840684050263],[-84.88210283764435,26.893759001984936],[-84.83396812489039,26.918239321178508],[-84.78695527636829,26.943708240911164],[-84.74140467105443,26.97046649277088],[-84.69749159665474,26.998670040903498],[-84.65521663649453,27.02832124136762],[-84.61440807907239,27.05927064140581],[-84.57473616743818,27.091229287460376],[-84.53573824060489,27.12379070753045],[-84.49354870194955,27.159424461388923],[-84.4423042106439,27.201688911888887],[-84.392611868461,27.239348742274654],[-84.34959755492021,27.268210432499714],[-84.30438895341499,27.29505424304828],[-84.25660047274725,27.319521265636215],[-84.20599526952046,27.3413889464669],[-84.15250702918618,27.360591447689337],[-84.09625054382435,27.3772298540262],[-84.03752032109784,27.391571495238153],[-83.97677726974055,27.404038359700408],[-83.9146243136159,27.415185282428173],[-83.85177252971451,27.425669258211027],[-83.78900003237514,27.436211814799982],[-83.72710629411483,27.447556844272345],[-83.66686487413742,27.460426601352257],[-83.6007347123682,27.482382686896337],[-83.5367400723989,27.506236100272254],[-83.48436072666325,27.526440206991833],[-83.43586595196983,27.549867592022913],[-83.39101919168118,27.576856329934124],[-83.34971355641933,27.60730705084296],[-83.3116651313606,27.640946631580313],[-83.27643265423416,27.6773472950752],[-83.24344686002601,27.715955328105352],[-83.21204761214703,27.75612751123156],[-83.18152643562561,27.797172852754894],[-83.15117170772918,27.83839687904189],[-83.12031357205882,27.87914557764149],[-83.08836564139364,27.918846125526443],[-83.05486074869336,27.957041757928717],[-83.01743351347812,27.995050265455298],[-82.97120480281697,28.036080859228036],[-82.9244040400194,28.072923411004425],[-82.88242128590647,28.10282705071486],[-82.8389558539327,28.131231154388193],[-82.79444433883867,28.15857908195387],[-82.74940725717296,28.185400521653285],[-82.70440919059256,28.21227109831393],[-82.66001598095227,28.23976879762989],[-82.61675185730972,28.268430123117056],[-82.57505935922741,28.298708929045052],[-82.53526471894443,28.330940704323005],[-82.49755099543646,28.3653147283343],[-82.46194074334942,28.401856002309874],[-82.42828938290792,28.440418212962765],[-82.39628975090706,28.480688252231708],[-82.3605670578373,28.525904328989206],[-82.32071116867286,28.574539256221673],[-82.2852966562688,28.61920268723024],[-82.25336065088409,28.660030035727765],[-82.21999158442296,28.69934749957892],[-82.18453244338792,28.73645280720751],[-82.14640814724375,28.770730219141054],[-82.10516240302594,28.801689647964896],[-82.06048730555469,28.82899814557836],[-82.01224369033923,28.852501711119558],[-81.9604708603788,28.872235997763692],[-81.90538502400575,28.888425211766098],[-81.84736654618696,28.901469257481036],[-81.78693687300371,28.91191993994037],[-81.72472668184376,28.92044774423952],[-81.66143738787639,28.927801323395595],[-81.5905267105363,28.93991186140887],[-81.51877099412827,28.952039423592584],[-81.45531444368059,28.960033568629235],[-81.39441237041049,28.96905091076843],[-81.33547219595216,28.980265156871944],[-81.27876866336092,28.99399159577749],[-81.22441777662898,29.01036709425994],[-81.1723749401388,29.029347212641042],[-81.12244363111832,29.050715359331054],[-81.0742939827978,29.074103325098108],[-81.02749002486979,29.099021783834655],[-80.98152377140762,29.124898688158307],[-80.9358538986653,29.151122969292278],[-80.8899464459842,29.1770906052671],[-80.84331482583646,29.20224997135732],[-80.79407848624041,29.22713841976224],[-80.7381786810073,29.253630528930547],[-80.6818055155338,29.27661149423778],[-80.62907270243817,29.294432145490692],[-80.5749688624089,29.310629798896123],[-80.51978685003272,29.325548484694732],[-80.46394425564688,29.339681377674143],[-80.407957281227,29.353640421367533],[-80.35240766787439,29.36811750252242],[-80.2979048774407,29.383839700973464],[-80.24504603077794,29.40152154113801],[-80.1943762340129,29.421817382064855],[-80.14635187928936,29.44527708781392],[-80.10130929658087,29.47230791688074],[-80.05944077712485,29.503145170352553],[-80.02077951265511,29.5378335689646],[-79.98199879517762,29.57824053656157],[-79.9430250721893,29.623122308863348],[-79.90912678651759,29.668621412662333],[-79.87937898635127,29.71485767733853],[-79.85075120191354,29.762522430999507],[-79.8225691710929,29.81077398435126],[-79.7941483791839,29.858757495173098],[-79.764834004636,29.90565489018631],[-79.73403890525451,29.950732225499827],[-79.7012771728954,29.993381444193844],[-79.66619105892136,30.033153861192748],[-79.62856950231972,30.0697832492355],[-79.58835705060248,30.103197079597177],[-79.54565261183309,30.13351524319271],[-79.50069816705138,30.16103639230971],[-79.45385825432845,30.18621284848041],[-79.39813748521625,30.21403823879383],[-79.34051095132834,30.2401112875887],[-79.29000216840737,30.26131868377157],[-79.24010600137004,30.282476327438047],[-79.19082110310679,30.304449121888233],[-79.14252119367995,30.32773031297513],[-79.09547020632513,30.352669866033892],[-79.04980400020595,30.37944981500844],[-79.00552095261179,30.408071285215144],[-78.9624820299104,30.438354060999657],[-78.92042032676588,30.46994873532606],[-78.87895945450376,30.502360641361374],[-78.83763958687638,30.534983982532403],[-78.79594946864634,30.567143899676196],[-78.75336229093993,30.598143686664788],[-78.70688752405708,30.6287120420998],[-78.65257547593522,30.659801603840364],[-78.59815400083127,30.685957612006],[-78.54718832905634,30.70569149212521],[-78.49376289588474,30.722024259460436],[-78.43792630384081,30.73501498260478],[-78.37987242212454,30.74492418101655],[-78.31993196785953,30.75220318965005],[-78.25855515560333,30.75747116952726],[-78.19628656148352,30.761481194727768],[-78.13373386469735,30.765077562404986],[-78.07153252359743,30.769147050940738],[-78.01030869166738,30.77456725385448],[-77.95064276835564,30.782155316228728],[-77.89303591114901,30.792620381865827],[-77.83788161928004,30.8065228230899],[-77.78163910638204,30.826243068074],[-77.72585897288657,30.850406753993678],[-77.676437578952,30.8763013037648],[-77.6316066932579,30.904952151863146],[-77.58904393145409,30.936975196598745],[-77.54835861678745,30.97179957800985],[-77.5090836224926,31.00873991071301],[-77.47070709730691,31.04704317676078],[-77.43270670255173,31.085939406871113],[-77.39458412689072,31.124692805043964],[-77.35589761230601,31.162649951381294],[-77.31629034181718,31.199281918611174],[-77.27551280325048,31.234217545388642],[-77.23343763992676,31.267265696625678],[-77.19006600321835,31.29842506924091],[-77.14552499847254,31.327880923348463],[-77.08382704283201,31.363847885210927],[-77.01979528192732,31.39703342608929],[-76.97200048785307,31.422386540112303],[-76.92466149784163,31.448070327419998],[-76.87798073893894,31.47487051922764],[-76.83234884329039,31.50343582248575],[-76.78810071888405,31.534324441156784],[-76.74548952207063,31.567960442234675],[-76.70466593046714,31.60459876510531],[-76.66566408041463,31.644301249190722],[-76.62839510349227,31.68692533135701],[-76.59264871286886,31.732126230783994],[-76.55810278036371,31.77937255018605],[-76.52434033755755,31.827974337469296],[-76.49087295774095,31.877121829828653],[-76.43457514100811,31.935599604183246],[-76.37273839284403,31.991933589108463],[-76.3323376253998,32.03673523484696],[-76.29243935767026,32.07774858286081],[-76.25058009235295,32.11513017648033],[-76.20650277309403,32.148388417746126],[-76.16006027166847,32.17723655716014],[-76.1112237293882,32.20160900454694],[-76.06008339759866,32.2216638119109],[-76.00684193583254,32.237771177974366],[-75.95180063975798,32.25048873348912],[-75.8953395484176,32.26052522666808],[-75.8378927859658,32.268694983021476],[-75.7799207987433,32.27586611403933],[-75.70986885243589,32.287434877789266],[-75.62295135930565,32.304540184346294],[-75.548430363007,32.316955088201446],[-75.4919146573748,32.325576515659684],[-75.43647294095341,32.3365803541559],[-75.38218509942205,32.350153305714066],[-75.32903622155212,32.3662723177352],[-75.27692067249694,32.384712289721804],[-75.22565220466153,32.405067390984335],[-75.17497941423497,32.42678452510495],[-75.12460550815476,32.44920667569508],[-75.07421106521345,32.471623216338465],[-75.02347827463105,32.493323808371706],[-74.9721150305814,32.51365227343289],[-74.9060024386952,32.53647990688706],[-74.8204553691272,32.560998287360135],[-74.7472510135389,32.57699552141094],[-74.6910491939799,32.58534970762696],[-74.63394366782462,32.591273009521174],[-74.5760864393336,32.59516450149509],[-74.51769714442734,32.59760909872289],[-74.45904998834982,32.599343836196276],[-74.40045692231597,32.60121354614684],[-74.34224818120433,32.604118801683704],[-74.28475146909852,32.60895950956886],[-74.22827115555508,32.61657782820607],[-74.17306883100886,32.62770413880362],[-74.11934646906738,32.64290960482231],[-74.03715421314492,32.67018109986433],[-73.95341498884476,32.69922501092225],[-73.90122147532406,32.725854265422065],[-73.851667406811,32.75645615108775],[-73.80315273471498,32.79079997936495],[-73.75546532660984,32.82816292398658],[-73.70835380081614,32.86767907075811],[-73.66154253185644,32.90839114667073],[-73.61474807370466,32.94930770417924],[-73.56769594470877,32.98946206164758],[-73.5201366901905,33.02796918899865],[-73.47186018203557,33.064076865207625],[-73.42270722817906,33.09720781269094],[-73.3306508453437,33.1351161174047],[-73.23185410659737,33.16656430812415],[-73.17437034258008,33.18720478510681],[-73.11998312663472,33.20409258110014],[-73.06503731259919,33.21827653773836],[-73.00966247814394,33.230382618680835],[-72.95400655165375,33.24113657692118],[-72.898224614908,33.25130907025303],[-72.84246740125535,33.2616581850368],[-72.78687025901127,33.27287321139103],[-72.73154331024433,33.285523425616006],[-72.6765634487923,33.3000153011948],[-72.60725830389175,33.31865506647572],[-72.50022462229146,33.34287383329525],[-72.40706296975934,33.36400615497226],[-72.35183351777002,33.38282251334489],[-72.29667201945757,33.40246336930534],[-72.2414949479674,33.4221817730573],[-72.18621046892063,33.441137482548456],[-72.13072476176136,33.45845250615556],[-72.07494848157619,33.473269917376534],[-72.01880292971387,33.48481206599464],[-71.96222552590486,33.49243434033709],[-71.90517422590382,33.495670918576316],[-71.84763060287763,33.494269465389415],[-71.73061751540486,33.49230657776931],[-71.61379405673239,33.48077960337444],[-71.55601738347976,33.46287724851633],[-71.49853138068961,33.44164303941049],[-71.44102706805666,33.41792621417513],[-71.38352416610337,33.3926924364963],[-71.32604129646961,33.36697595488492],[-71.26859492150632,33.34181935783837],[-71.21119845132819,33.318212930625556],[-71.15386157323093,33.29703751817794],[-71.09658984666837,33.279014565700734],[-71.03938459118123,33.264666536037964],[-70.98224307475377,33.25429022181432],[-70.92515898701096,33.24794462568565],[-70.86812315744486,33.24545412893167],[-70.8111244562845,33.2464266693545],[-70.7541507978316,33.25028566919102],[-70.69719015593063,33.25631355646914],[-70.64023150066947,33.26370396755961],[-70.58326557497352,33.271619154089805],[-70.5262854484256,33.279248781026375],[-70.4692868109058,33.285866216905156],[-70.4122679969556,33.290878587827],[-70.35522975922058,33.29386728303845],[-70.2981748323846,33.294616234522714],[-70.2411073451656,33.29312610436529],[-70.18403214611298,33.28961344823246],[-70.12695410950927,33.284494919343615],[-70.0698774821955,33.2783575689348],[-70.01280532280212,33.27191722081171],[-69.95573907385476,33.26596768831798],[-69.89867829613618,33.26132420982898],[-69.84162058422982,33.25876486388832],[-69.78456167213305,33.2589738623011],[-69.72749572739126,33.262490500215],[-69.67041582043477,33.269667174617595],[-69.61331454220694,33.28063929111342],[-69.55618472815252,33.29530910221194],[-69.49902023164174,33.31334460952224],[-69.44181667732286,33.33419367672945],[-69.3845721175742,33.357112504357424],[-69.32728751582347,33.381206676114054],[-69.26996699076174,33.405482161583365],[-69.21261777562654,33.42890300522234],[-69.15524987516888,33.450451990114544],[-69.09787543630964,33.469190365993626],[-69.04050788224286,33.48431278815323],[-68.98316088883045,33.49519392371197],[-68.92584730206653,33.501423724339524],[-68.86857810312442,33.50282910455245],[-68.81136152204466,33.49948065344426],[-68.75420238372617,33.49168398662035],[-68.69710174370198,33.479956349488226],[-68.64005684056363,33.46499004651598],[-68.58306136141157,33.447605130006195],[-68.58879183882587,33.02353619576118],[-68.56679482047574,33.02416782534394],[-68.46143560752314,33.01853308754666],[-68.35743623236375,33.004257819283936],[-68.25582493457242,32.981485812005076],[-68.15760391359203,32.95044459097454],[-68.06373873123498,32.911442891197076],[-67.97514823602849,32.86486728776147],[-67.89269513817217,32.8111780300888],[-67.81717734828283,32.75090413912165],[-67.74932017555041,32.68463783457384],[-67.68976946213479,32.61302836586658],[-67.6390857113125,32.536775325268614],[-67.5977392477232,32.456621525056],[-67.56610642968387,32.373345522290684],[-67.54446691645856,32.28775387521115],[-67.53300197800037,32.20067321439321],[-67.53179382130851,32.112942209956806],[-67.54082589632705,32.02540351336083],[-67.55998413530313,31.9388957489329],[-67.58905907266276,31.85424562641031],[-67.62774878761232,31.772260241583396],[-67.67566260862615,31.69371962777682],[-67.73232551748555,31.61936961648854],[-67.79718319031352,31.54991506111786],[-67.86960761382268,31.486013473408768],[-67.94890321648177,31.42826911804589],[-68.03431345625393,31.377227606776863],[-68.12502780873885,31.333371029488273],[-68.22018910176143,31.29711365581146],[-68.31890114453147,31.268798237046106],[-68.42023660132233,31.248692934427694],[-68.52324506108548,31.236988895990606],[-68.60537478139227,31.23446850706652],[-68.6059936414958,31.126382473423202],[-68.66194763818984,31.107485262814976],[-68.71785614919536,31.093308348090066]]]}},{"type":"Feature","properties":{"role":"land corridor axis","status":"authorial trial"},"geometry":{"type":"LineString","coordinates":[[-68.598596664105,32.128781896503575],[-68.68324620178255,32.1282647922042],[-68.85252404291221,32.127087365469464],[-69.10638701690662,32.12496336889778],[-69.44476861542458,32.12146391055751],[-69.86757689820314,32.11601804853096],[-70.37469171761762,32.1079136160508],[-70.96596128060169,32.096298304669574],[-71.64119807643173,32.08018103926241],[-72.32928957414208,32.019834567128434],[-73.02927183157246,31.915037209392064],[-73.74014357467681,31.765582590925103],[-74.46087623161812,31.571281049033185],[-75.19042434468653,31.331960762375573],[-75.9277361918298,31.047468576493326],[-76.67176444713782,30.717670507971377],[-77.42147671288467,30.342451915347244],[-78.15556206690235,29.950864343316972],[-78.87396972887296,29.543131041425717],[-79.57667305323575,29.119471599805454],[-80.26366859718793,28.6801013976417],[-80.9349751295256,28.225231090125167],[-81.5906325933458,27.755066133943682],[-82.2307010348572,27.269806350986038],[-82.85525950969452,26.76964552958708],[-83.44686406787496,26.26838631818848],[-84.00604677333997,25.76640045691822],[-84.5333207116615,25.264031510392144],[-85.0291798448047,24.761596114517175],[-85.49409900374867,24.259385168852063],[-85.9285339989043,23.75766497462858],[-86.33292183026214,23.256678319049353],[-86.70768098106659,22.75664550689182],[-87.03372446880078,22.25596764277846],[-87.31163137401181,21.754927274207716],[-87.54195807639226,21.253756392800362],[-87.72523858566983,20.752638471945367],[-87.86198500035835,20.251710418987503],[-87.95268806091512,19.751064444391808],[-87.99781776727957,19.2507498509752],[-87.99782403390306,18.750774746770777],[-87.96872768130892,18.266943601746917],[-87.9107543981381,17.799228049573713],[-87.8241038471189,17.347586357859416],[-87.70895172053851,16.91196375196706],[-87.56545161212404,16.4922926728261],[-87.39373671682068,16.088492973779932],[-87.19392136888769,15.700472060834628],[-86.96610242779255,15.328124980078803],[-86.76762865614758,15.001940668523558],[-86.59813876991112,14.722072499828409],[-86.4573332908324,14.48865109547444],[-86.34496975766811,14.301784752745863],[-86.26085880684236,14.161559768018876],[-86.20486108193371,14.068040674099706],[-86.17688494122338,14.021270406054926]]}},{"type":"Feature","properties":{"role":"inherited upland island","status":"authorial trial"},"geometry":{"type":"Polygon","coordinates":[[[-71.75685914338408,29.74569170219345],[-71.81667279054028,29.727415131800676],[-71.87234353126277,29.71159587689827],[-71.91984121750112,29.697044013758987],[-71.95781178841268,29.68267118781695],[-71.98746432264782,29.667844338361274],[-72.0118438085014,29.65257439173521],[-72.03470807395456,29.63747400609194],[-72.05931998879504,29.623487364190346],[-72.08747566874514,29.6114664031368],[-72.11901535674421,29.601720139949716],[-72.15192791209829,29.59368041755921],[-72.18299979314233,29.58580258816096],[-72.2088169890913,29.57575963286502],[-72.2268393111772,29.560908906892386],[-72.23625239401164,29.53893290939969],[-72.23836648465947,29.508499742668654],[-72.23645558613406,29.46977089733953],[-72.23508223283186,29.424610628954657],[-72.2390902930695,29.37641818027164],[-72.2525326425476,29.32959578899879],[-72.27780993471796,29.288758157350237],[-72.31523116509446,29.257857806455515],[-72.36308782275758,29.239426629257505],[-72.41819591726927,29.234109866435073],[-72.47674110616846,29.24060086525024],[-72.53519126791805,29.25599049664961],[-72.59103447078832,29.276447256003177],[-72.64315848609388,29.298066572492964],[-72.69179475564327,29.317689548020162],[-72.73807595366598,29.33350183407244],[-72.78336650583368,29.345280284476974],[-72.82858758332347,29.35424410081469],[-72.87375372974898,29.3625655413674],[-72.91786897884039,29.372677603195953],[-72.95921723105842,29.386561723095507],[-72.99595839120235,29.405196839568433],[-73.02684393232656,29.42830381260679],[-73.05182094758989,29.454439224544256],[-73.07231573171708,29.48140081719192],[-73.0910724038472,29.506826896376424],[-73.11154798998552,29.5288246400784],[-73.13699890670644,29.546459589327743],[-73.16949653959642,29.55998066532048],[-73.20914970165245,29.570729306083866],[-73.25377433453158,29.580766518309183],[-73.2991436023735,29.592324551252652],[-73.33980265745834,29.607232085614324],[-73.37028150235277,29.626464063273136],[-73.38642618205974,29.649930651838286],[-73.38652261710351,29.676554429435388],[-73.37192199073608,29.70460731533965],[-73.34698604518198,29.732209049243043],[-73.31833088654004,29.757846223389542],[-73.29352062511127,29.780767842024687],[-73.27950305155719,29.801151796761417],[-73.28115003328175,29.82000514411608],[-73.30024469878155,29.838838395477765],[-73.3351501235909,29.85921649469349],[-73.3812284917481,29.882319044988183],[-73.43189893434742,29.908633236548276],[-73.4800719996597,29.9378600882502],[-73.5196150340356,29.969051570309865],[-73.54650447626915,30.000930079680913],[-73.55940655130367,30.032289539061363],[-73.55957561884541,30.06235283650793],[-73.55013252818843,30.09097113210805],[-73.53493957052545,30.11859564390565],[-73.51738395594862,30.146020698147524],[-73.49939374949678,30.173968770758755],[-73.48093741686306,30.202642128248986],[-73.46012211582207,30.23138445139252],[-73.43384413454072,30.25857294770649],[-73.39879990185345,30.281802633965487],[-73.352574337741,30.298345322459106],[-73.29450738489689,30.305787197704863],[-73.22610280179812,30.302691552156368],[-73.15086895330784,30.289113412607783],[-73.0736355993979,30.266817970060426],[-72.99953092086156,30.239121111476273],[-72.93289004004303,30.21036246346116],[-72.87637675482466,30.185115349243347],[-72.83053391840957,30.16730838612333],[-72.79385677186036,30.159460666256543],[-72.76334318103292,30.162209028312567],[-72.73535309319249,30.174237913840543],[-72.70653703282319,30.192627004137606],[-72.67458676531163,30.21353281858294],[-72.6386205317956,30.233041821811398],[-72.59912421325708,30.247993544118682],[-72.55749873218826,30.256582612548748],[-72.51537661845379,30.258606112446053],[-72.47393404320084,30.25531284509198],[-72.43341983166631,30.24891052735524],[-72.39305171979596,30.24187004965859],[-72.35131428752358,30.236211583425245],[-72.30656716684665,30.23295494836581],[-72.25777272797396,30.23186815642717],[-72.20510774915378,30.23156686369547],[-72.15024693237977,30.229924850661806],[-72.09619304576637,30.224675588490992],[-72.04665717949628,30.214038252961597],[-72.00512838079321,30.197200284823325],[-71.97387558774965,30.174532326844478],[-71.95316403129212,30.14748697047911],[-71.9409285056194,30.11821845310127],[-71.933035652284,30.08903276691273],[-71.92411583390583,30.0618182803922],[-71.90879281648301,30.03760717122972],[-71.88302638336302,30.01637942038663],[-71.84523868484142,29.9971544626758],[-71.79693236465917,29.97833783055932],[-71.74262088005125,29.958221379906067],[-71.68905405554452,29.935494868569066],[-71.64389568689329,29.909626135352728],[-71.6141501856521,29.881007855104905],[-71.60470346612884,29.850838716825102],[-71.61731959123745,29.820784139768183],[-71.65032455613809,29.79252261110839],[-71.69904127702625,29.76731115771442],[-71.75685914338408,29.74569170219345]]]}},{"type":"Feature","properties":{"role":"inherited upland island","status":"authorial trial"},"geometry":{"type":"Polygon","coordinates":[[[-72.27548641553497,27.079639676226304],[-72.33492935711999,26.986269448422966],[-72.28950111234026,26.92038606207428],[-72.3461132547175,26.898221226742347],[-72.4130656285641,26.87674673627181],[-72.47539682684437,26.858131289968355],[-72.52856079595816,26.84103019919163],[-72.57102029851913,26.824198267029605],[-72.60412506122042,26.806897980574362],[-72.63129726473038,26.78912179635277],[-72.65676885813512,26.771550996201878],[-72.68422035379055,26.755252327943325],[-72.71568261466473,26.741195967384456],[-72.75098066103469,26.729739210027425],[-72.78784620404858,26.720240440526027],[-72.8226454321227,26.71094032084048],[-72.8515077070802,26.699178840054202],[-72.8715396292667,26.681926084096993],[-72.88179193924127,26.656515122185116],[-72.88371742446762,26.62140079194948],[-72.88099759258596,26.57674646204726],[-72.87878682784424,26.524670348920615],[-72.88257795316554,26.469059147162493],[-72.89698942365848,26.414961912332803],[-72.92478618198417,26.367684168775305],[-72.9663733846575,26.331782083638384],[-73.01986884450784,26.31018723070322],[-73.08170521091925,26.30366551670128],[-73.14757831397816,26.310736269074365],[-73.21347726412193,26.32806897494921],[-73.27652334905959,26.351262439004522],[-73.33540893358551,26.37582146704218],[-73.39034678923194,26.398101335525862],[-73.44258213567593,26.416001505829314],[-73.49364434226753,26.4292548544901],[-73.54458645747047,26.439260913829028],[-73.59545735818217,26.4485250304858],[-73.64517468879605,26.459860776166717],[-73.69184037350196,26.475566380268827],[-73.73340199143233,26.496784907653762],[-73.76845273337962,26.523204083541135],[-73.7969113865779,26.553159841138477],[-73.82034707794675,26.584101703286752],[-73.84180711461728,26.61328526740883],[-73.86514692945241,26.638501393262395],[-73.89401112819446,26.65864760457203],[-73.93073080253885,26.673995010893623],[-73.97544851273479,26.686089457585005],[-74.0257415654995,26.697324139049392],[-74.07689476345739,26.710305666283702],[-74.12280711539125,26.727185196171504],[-74.15734758873704,26.74912993296647],[-74.17584738839963,26.776069127669636],[-74.17636375105941,26.806773915116292],[-74.16038789427307,26.83924077214412],[-74.13279148874038,26.871266988960166],[-74.10098525104662,26.901055597017283],[-74.07345726613757,26.9276820799343],[-74.05801767462576,26.951298439671014],[-74.06015680013469,26.97302899387411],[-74.08190188813349,26.994602006669822],[-74.12143787013326,27.017834223617236],[-74.17357164134222,27.04412084345161],[-74.23091600593175,27.07407390597722],[-74.28550002642707,27.107403589375316],[-74.33041764421455,27.14306498975792],[-74.36112740924902,27.179617117847915],[-74.37611133545772,27.215680323100237],[-74.37676643307118,27.25034892835483],[-74.36659706505553,27.283426731704363],[-74.34995032775727,27.315403528825982],[-74.3306449449822,27.3471685651787],[-74.31085885193727,27.3795397947062],[-74.29055970441419,27.41275069336234],[-74.26760997491456,27.446059166552377],[-74.23849619114948,27.47761793215716],[-74.199468051774,27.504679004983558],[-74.14776888755686,27.52411438071954],[-74.08261969946628,27.533144527641674],[-74.0056890528313,27.530099712985383],[-73.92092199982544,27.515015200508557],[-73.83377513620694,27.48988898591539],[-73.75006380342276,27.458506098807835],[-73.67472682687449,27.425839164523186],[-73.61082729198391,27.3971435053508],[-73.55903415810046,27.376946914905318],[-73.51769353362492,27.36816660475537],[-73.48344027577885,27.371559721757027],[-73.45216298772431,27.385636112321443],[-73.42005276832761,27.40705252412737],[-73.38445714387431,27.431393290263237],[-73.34432597008107,27.45415147351498],[-73.30015781692269,27.47167865729288],[-73.25350036739918,27.48188260425702],[-73.20618587214413,27.484517506603904],[-73.15955542598473,27.481015073732163],[-73.11392201586428,27.473919514346626],[-73.06844341843345,27.46608582404327],[-73.02144642163134,27.459854298886704],[-72.97110231577673,27.456412332800046],[-72.91624116668885,27.455499327815573],[-72.85704095505058,27.4555172225804],[-72.7953525143316,27.454002126787167],[-72.73451764642148,27.448319514932553],[-72.67868175523479,27.43639060743428],[-72.63175502827694,27.417255197264414],[-72.5962934998775,27.39132605243533],[-72.57261663933654,27.360277127015774],[-72.55843458939138,27.326606989907734],[-72.54913513377835,27.293002912582047],[-72.53871057382108,27.2616787513222],[-72.52113347919521,27.233860927559935],[-72.49186275254871,27.209553233307275],[-72.44911079553881,27.187634839085263],[-72.39454327632475,27.166256052546856],[-72.33320817064234,27.14341616767973],[-72.27267281628879,27.117559243591284],[-72.2553700362545,27.107566589233887],[-72.27548641553497,27.079639676226304]]]}},{"type":"Feature","properties":{"role":"inherited upland island","status":"authorial trial"},"geometry":{"type":"Polygon","coordinates":[[[-75.07901494028886,24.78945139127864],[-75.13335724206256,24.766402427063063],[-75.18974311053466,24.746650981083395],[-75.24227444458697,24.729461700573918],[-75.28705438186255,24.713742318921778],[-75.32274580680632,24.698436389730464],[-75.35047764104876,24.682880366472123],[-75.37315782050364,24.667010363484646],[-75.39439905525191,24.65134734841787],[-75.41735460002077,24.636756263245395],[-75.44377328642528,24.624045711045646],[-75.47351451104373,24.61352889887302],[-75.50463491487677,24.604686539355587],[-75.5340045197083,24.59605155771858],[-75.5582715034735,24.58537887832797],[-75.57490660035485,24.570086305617515],[-75.58304181620497,24.54787494197353],[-75.58387705272143,24.51738027469991],[-75.58054642959507,24.478684091653644],[-75.57748176905545,24.43354041652313],[-75.57944401270561,24.385232304085648],[-75.59047763183726,24.33806587125004],[-75.61305611284824,24.296600386282012],[-75.64762718792298,24.26478366706632],[-75.69265401798275,24.24519103530592],[-75.74511579667956,24.238545503709766],[-75.80131415944952,24.243631878494373],[-75.85775995499803,24.25762446051237],[-75.91190516369929,24.276750038817443],[-75.9625379111073,24.297128798284973],[-76.00975959157363,24.315594925236223],[-76.0545842938334,24.33030631419251],[-76.09830802102775,24.341007216074544],[-76.14185773590864,24.34889531970598],[-76.18532979057238,24.356143219161353],[-76.2278643290891,24.36520822738237],[-76.26789596610385,24.378112870468694],[-76.30370301620826,24.395879639893362],[-76.33408200233228,24.418258490207243],[-76.35892845641357,24.443806531176843],[-76.37952281695655,24.47028699038938],[-76.39839831086896,24.49527261898368],[-76.41878638792004,24.51678842757058],[-76.44376253230593,24.533822875275142],[-76.4753146286805,24.546576224183724],[-76.51359695857734,24.5563879940305],[-76.55660054936216,24.565371550826285],[-76.60037129252382,24.575859457763617],[-76.63976677170305,24.58980909554685],[-76.66959845022419,24.608323872849553],[-76.68589590536781,24.631411174449845],[-76.68698327560331,24.658033563668916],[-76.67408854357303,24.686431236878857],[-76.65130881376429,24.714621593986212],[-76.62490660026793,24.740935583476062],[-76.6020768412001,24.764443649780148],[-76.58945975188482,24.78515913486244],[-76.5917439895268,24.803973454673734],[-76.61068776313917,24.822354817762232],[-76.64478572614402,24.841907194924715],[-76.68965273658225,24.86392034037015],[-76.73902264986347,24.889037212371544],[-76.78611492920918,24.917126015577324],[-76.82503928562878,24.947382836561665],[-76.85190773669599,24.97862435483056],[-76.86540347531256,25.009675659356617],[-76.86669647585059,25.039730212880002],[-76.85876152157931,25.068565989229807],[-76.84530304778211,25.09654348764059],[-76.82958443921743,25.12437729022034],[-76.81347341646064,25.152744352367755],[-76.79694772942106,25.181847654495908],[-76.77817634532582,25.211075760113616],[-76.75413610858783,25.23887978280961],[-76.72158327195065,25.26293388754035],[-76.67810897241692,25.28056846703759],[-76.62298982521872,25.289386887706236],[-76.55760317446024,25.287917999587695],[-76.48529552859432,25.276133966617852],[-76.41074034486797,25.255684597170053],[-76.33895713929027,25.229762317872513],[-76.27425035350936,25.20260171606376],[-76.21934046113802,25.178711067409047],[-76.17489994655524,25.162005111232094],[-76.13959265587955,25.15503860075816],[-76.11058001812263,25.158520301020214],[-76.08433842199935,25.171222114232844],[-76.05755878717667,25.190304387112057],[-76.0278892074866,25.2119794662739],[-75.9943354296369,25.232355459000868],[-75.9572366610577,25.24826057701875],[-75.9178575401032,25.257855859619987],[-75.87774639685287,25.26089892423161],[-75.83807359830232,25.258609920603927],[-75.79916312579229,25.25319031882604],[-75.76036613655404,25.247129875975787],[-75.72031682871852,25.24248563100079],[-75.67749079787397,25.240317518135473],[-75.63088916129846,25.240419148677645],[-75.58062578763227,25.2414022154233],[-75.52821372843724,25.241099820185596],[-75.47642690788615,25.23717192561581],[-75.42873404494337,25.227746377447588],[-75.38843092650215,25.211924339412672],[-75.35769737210023,25.190020017148836],[-75.33684561355373,25.16347899445027],[-75.32399268812944,25.134506129296323],[-75.31528771865786,25.105509126605423],[-75.30568224017951,25.078508494305222],[-75.29008610651832,25.054668632723473],[-75.26464148387497,25.034068911006564],[-75.22780209232126,25.015767779883728],[-75.18093736657563,24.99813418340575],[-75.12828610233102,24.9793491751922],[-75.07623799722043,24.95793613658094],[-75.03208718070215,24.93317337551011],[-75.00253683197685,24.905280009520045],[-74.99230165920312,24.875333821930063],[-75.00313575542039,24.844957296344784],[-75.03351124265582,24.81587174480484],[-75.07901494028886,24.78945139127864],[-75.07901494028886,24.78945139127864]]]}},{"type":"Feature","properties":{"role":"inherited upland island","status":"authorial trial"},"geometry":{"type":"Polygon","coordinates":[[[-78.695738046071,22.9958788884602],[-78.88033355096479,22.858231483653555],[-78.89653557841793,22.86427810017987],[-78.93429379387423,22.87601070523046],[-78.97105013446783,22.88436651413163],[-79.00760385312053,22.890344830981554],[-79.0440792616523,22.895783986548793],[-79.07980679279707,22.902778673767596],[-79.1135181995252,22.91306645465967],[-79.14379460768437,22.927540262356395],[-79.16962516018299,22.94600699110653],[-79.19089412138712,22.967245940248958],[-79.20862751791648,22.9893422975064],[-79.22489433100768,23.010200289004253],[-79.24235560012856,23.028096262959288],[-79.2635608780467,23.042125124872985],[-79.29017496293758,23.052425423156954],[-79.32235327914016,23.060129634598226],[-79.35845909298402,23.067059631985526],[-79.39523459080226,23.075253090188532],[-79.42842153244204,23.086447883773076],[-79.45370653929469,23.101658756040937],[-79.46777311732794,23.120953058261897],[-79.4692021562346,23.143477952460913],[-79.45898677183703,23.167724298530427],[-79.44051213305255,23.191949965501447],[-79.41897727146063,23.21464429841262],[-79.40037325549143,23.234907497102],[-79.39024541546169,23.252646139649237],[-79.39252605558411,23.26854079338632],[-79.40871143389568,23.283806979064376],[-79.43757500983254,23.299827191185596],[-79.47547908235533,23.3177633906496],[-79.5172025316429,23.33825889766156],[-79.55707996023052,23.361308048230914],[-79.59017706865698,23.38632119220565],[-79.61322505552434,23.412355804634803],[-79.62510282635488,23.438436722093087],[-79.62677293998277,23.46386262368842],[-79.62071590487555,23.488399545356845],[-79.61003227666849,23.51229555552838],[-79.59746088422025,23.536105236250293],[-79.58457442878982,23.560372805437307],[-79.57135850201911,23.58527048647203],[-79.55627283744074,23.610309200637747],[-79.53676367593795,23.634224991799123],[-79.51007768051728,23.655099945906812],[-79.47415102861565,23.67071256331893],[-79.42833107399322,23.679046515254907],[-79.37373573586602,23.67883615808817],[-79.3131545526889,23.670006357106093],[-79.25051854903978,23.653880389726353],[-79.19008015256796,23.633080907091593],[-79.13551817277317,23.61112335266954],[-79.0891968073506,23.59177981559957],[-79.05175977233891,23.57835285386982],[-79.02214644669662,23.57302631482716],[-78.99800378966168,23.57644576790251],[-78.9763665430121,23.587628266099593],[-78.95441479475089,23.604223111564533],[-78.930107434026,23.623061566388987],[-78.90253363167821,23.640864667159086],[-78.87190963179594,23.654941447583088],[-78.83925120430439,23.6637142355595],[-78.80584415295668,23.666952396589323],[-78.77268994506532,23.665669749773002],[-78.7401050383025,23.66172498060335],[-78.70760075485585,23.65723708331476],[-78.67408134546932,23.653970732831215],[-78.63829771466375,23.652849153602514],[-78.5994123235732,23.653714707884866],[-78.55749068316084,23.655390380353975],[-78.51374862802635,23.656016194898214],[-78.47044970512296,23.65356386123248],[-78.4304468383302,23.646388898809512],[-78.39646979864882,23.63367338615154],[-78.37034413890173,23.61564533277016],[-78.352362436332,23.593522772965486],[-78.34100239223454,23.56920452070888],[-78.33310359573431,23.544795073125346],[-78.32449692949649,23.522091620968197],[-78.31095898447536,23.502167163763172],[-78.2892707716416,23.48515505054315],[-78.25812038135544,23.470285012116612],[-78.21861470713404,23.456153337864546],[-78.1742517008982,23.44114785077065],[-78.13033234013163,23.42390845530824],[-78.09292958391957,23.403697563182916],[-78.06764470969604,23.380583635468636],[-78.05843911256765,23.355396739690473],[-78.0668154104255,23.32948045822341],[-78.09153835339538,23.304320142738362],[-78.12895513883704,23.281157786782167],[-78.12895513883704,23.281157786782167],[-78.17383014900847,23.26070164751695],[-78.220487384344,23.243006792183564],[-78.26398466629892,23.22755120103165],[-78.30104308234998,23.213475303804557],[-78.33052232871708,23.19990589130101],[-78.35335032210308,23.18626081615477],[-78.37195390134784,23.17243609018119],[-78.3893613003734,23.158811572072477],[-78.4082245464205,23.146066558915493],[-78.43002150894486,23.134856579596413],[-78.45464130511382,23.125449535968762],[-78.48044951850159,23.11743848732064],[-78.50480053384615,23.10963341186241],[-78.52484716737538,23.100188739484754],[-78.53842241430301,23.08695938866995],[-78.5447530234818,23.06801243315585],[-78.54480233814672,23.04671549737796],[-78.695738046071,22.9958788884602]]]}},{"type":"Feature","properties":{"role":"inherited upland island","status":"authorial trial"},"geometry":{"type":"Polygon","coordinates":[[[-81.1309523864009,19.94249569502692],[-81.15567641412026,20.15989036491269],[-81.37179918999503,20.267877688156624],[-81.59755262127871,20.101724683557787],[-81.60140172649605,20.104013110965752],[-81.61292709430379,20.1196483604114],[-81.6143793352874,20.138075349602598],[-81.60653421083877,20.158046854560254],[-81.59207893468917,20.17809753657666],[-81.57515495585976,20.19693044738183],[-81.56054497630797,20.213739077874514],[-81.55268520190776,20.22838184675559],[-81.55473117595187,20.2413696556419],[-81.56789619567076,20.253680339370145],[-81.59121687022744,20.26646089044433],[-81.62179719081348,20.280706125697424],[-81.6554669974982,20.297004225138433],[-81.68769214070275,20.315416228725898],[-81.71451628303832,20.335515647179488],[-81.73331181151546,20.356567413827573],[-81.74316970327158,20.37778517426122],[-81.74485187805342,20.39858333379174],[-81.74034072938902,20.418741965671074],[-81.73212075199737,20.438428860788637],[-81.7223907966163,20.458066843393755],[-81.71241647758302,20.47808349611643],[-81.70218873470128,20.498620002149647],[-81.69046908980825,20.51929372244585],[-81.67519801136093,20.539099466983213],[-81.65414742954911,20.556499272139188],[-81.62563622567771,20.569699108309003],[-81.58911386407578,20.577057005420926],[-81.54545507012766,20.57752516756265],[-81.49688714395872,20.571010632640117],[-81.44656988973003,20.558551096462704],[-81.39793959576399,20.54224318233708],[-81.35398830414131,20.524920324644306],[-81.31666211718276,20.509641290034256],[-81.2865254404911,20.49910109547778],[-81.26276357593792,20.495099716959814],[-81.24350543184283,20.498193730250993],[-81.22636603694018,20.50761413801451],[-81.20905629174072,20.521470578878105],[-81.18989762988859,20.537193622401805],[-81.16811333834836,20.552109926345246],[-81.14383611483946,20.564013818806234],[-81.11785397973186,20.571601250260635],[-81.0911907101091,20.5746675875706],[-81.064661502249,20.574030483752427],[-81.0385469410793,20.571207795915086],[-81.01248823198284,20.5679406153235],[-80.98563617579147,20.565687671506012],[-80.95700639417122,20.56522084445663],[-80.92592715536892,20.566422000712645],[-80.89243301109285,20.56832699273802],[-80.85746733973276,20.569397727812696],[-80.82280803456956,20.567944560243987],[-80.79070972361288,20.562584017071323],[-80.76334143354133,20.55261049550853],[-80.74216606366105,20.538186236330297],[-80.7274370053617,20.520304065721913],[-80.71796759266353,20.500538102239044],[-80.71126435599577,20.480652475434074],[-80.70402173944262,20.462172986825603],[-80.69287868507408,20.44603328888125],[-80.67526222451534,20.432384783299955],[-80.65011033933358,20.42061447781209],[-80.61828567499641,20.409559391861514],[-80.58256006363295,20.397854376504807],[-80.54715156500536,20.38431625169181],[-80.51690601221767,20.368260302212644],[-80.49630564912408,20.349667245152418],[-80.48853421135081,20.32916312445431],[-80.4948175510168,20.307827892499965],[-80.51419354728233,20.286895033687518],[-80.54376123271382,20.267431495429953],[-80.57934343725435,20.25008791590111],[-80.61639902440523,20.23498489653766],[-80.65096416570067,20.221759624984763],[-80.68040047474676,20.209750223555666],[-80.70378091018272,20.19825546593239],[-80.72183840549349,20.18678578271057],[-80.7365132283137,20.175224130184915],[-80.75023474276348,20.163842282897296],[-80.76513604853085,20.15316236502705],[-80.78241016986365,20.143702354475593],[-80.8019724416049,20.13568329701152],[-80.82250823816567,20.128793047639448],[-80.84188149672474,20.12209086127002],[-80.85778487905172,20.11410141119179],[-80.86845105285254,20.103095227980685],[-80.87323159568085,20.08749885238609],[-80.87288803351099,20.066336664269087],[-80.86951796693526,20.039589079391654],[-80.86613691389125,20.008364538037547],[-80.86602698981876,19.97482375143611],[-80.87202246450462,19.94185453858188],[-80.88591424533512,19.91255904958071],[-80.90811854093155,19.889665303353425],[-80.93768103474271,19.874998004582125],[-80.9725981153275,19.86913295382882],[-81.01035551483162,19.87131738139873],[-81.04853310878471,19.879675679391976],[-81.08531512466695,19.891651923363415],[-81.10524852634033,19.899132924520334],[-81.1309523864009,19.94249569502692]]]}}]}
