{"type":"FeatureCollection","features":[{"type":"Feature","properties":{"id":"western ancestral substitution"},"geometry":{"type":"LineString","coordinates":[[-69.56997922740949,-42.143400565203834],[-61.07522437166177,-42.18770126401959],[-51.59681024232934,-43.043278615345656],[-46.930875693656404,-41.043227914502374],[-40.0115879011735,-41.50672298643904],[-36.2840439503898,-40.20322060024051],[-31.169027557826087,-38.55412762912241],[-20.536281097494427,-40.9665259272288],[-10.915810421362043,-47.042113484239216]]}},{"type":"Feature","properties":{"id":"northern shelf arc","status":"passes present full-mask no-land-shortcut check; voyage and dated widths remain conditional"},"geometry":{"type":"MultiPolygon","coordinates":[[[[88.67745190140452,1.4988078329743417],[90.26356632062078,1.8232361869238458],[90.79185393679592,-0.839351065410579],[90.79572238044126,-0.8604326076155879],[91.05318304136496,-2.3806115182251015],[89.46196259828442,-2.6599201823445124],[89.20600312225447,-1.151202774472433],[88.67745190140452,1.4988078329743417]]],[[[88.20257409001722,3.8354122610975394],[88.19056262484577,3.9128542351023854],[88.18611742423502,3.9911122017124008],[88.1892827982218,4.069452464437962],[88.200031821232,4.147140242499134],[88.21826647907297,4.223446540233952],[88.24381847574556,4.297654975402305],[89.11323057668046,6.470941477107487],[90.62537184448036,5.871176827815027],[89.84084586691884,3.924738374047759],[90.22828443574996,1.9997086276161118],[88.64193031922463,1.6751246044337282],[88.20257409001722,3.8354122610975394]]],[[[90.2429610898372,9.27921467729602],[90.78155672092483,10.848156180972126],[92.33996900748505,10.324686546048678],[91.78781354989715,8.737104411158109],[91.77242817613137,8.69630600699506],[90.69282800088806,6.038100947420355],[89.18020495532848,6.638034694006951],[90.2429610898372,9.27921467729602]]],[[[92.3144979771127,15.243386794724673],[92.33759960204054,15.301311347586328],[92.3652238039631,15.35735012711719],[92.54798268342437,15.693694516693053],[94.02795946510876,14.93450761308711],[93.87385470717744,14.654029393934769],[92.39941096126451,10.49480080709514],[90.84025578544608,11.018501609103872],[92.3144979771127,15.243386794724673]]],[[[95.66795545543721,21.267583916620424],[95.71222399263851,21.33596766132057],[95.76339836628415,21.399958042566123],[95.82098872019134,21.458934450089505],[95.88444115147475,21.51232445986998],[95.95314299881937,21.55960952388155],[96.0264287900901,21.60033014002497],[96.10358679138355,21.63409044499824],[96.18386608972997,21.660562178625785],[96.26648413252354,21.679487974777253],[96.35063463869643,21.690683941383224],[96.43549578992997,21.694041500088108],[96.52023860504909,21.68952846463913],[96.60403539736868,21.677189346041192],[96.68606821326816,21.6571448816446],[96.76553715072838,21.629590794499613],[96.84166845894605,21.59479579833292],[96.91372232436242,21.55309887220592],[96.98100025434107,21.504905837145888],[97.04285197709592,21.45068527466099],[97.09868178504043,21.3909638339436],[97.14795425821681,21.326320980646805],[97.19019931456828,21.257383245327226],[97.22501654423279,21.18481803395239],[97.25207879548717,21.109327066269554],[97.2711349901947,21.03163951034378],[97.28201215639685,20.95250488323578],[97.28461667486692,20.872685788657243],[97.2789347448889,20.792950562576532],[97.26503208216145,20.71406589721847],[97.24305286852456,20.63678951277635],[97.21321797917088,20.561862944497175],[97.17582251817278,20.49000451067118],[94.1155192222389,15.093552145985985],[92.63482914167678,15.853184178222826],[95.66795545543721,21.267583916620424]]],[[[91.80484470778624,-6.860592788745959],[91.81417889654874,-6.9401104331582735],[91.81574426829609,-7.020197897410146],[91.80952390159656,-7.100083761545572],[91.79557584234665,-7.178998570148061],[91.77403261956489,-7.256182239788704],[91.74510004562303,-7.330891376227117],[91.70905530889166,-7.402406431548676],[91.666244373361,-7.470038632823725],[91.61707870646778,-7.533136615878102],[91.56203136307006,-7.5910927003714095],[91.50163246020196,-7.643348745588609],[91.43646408382664,-7.689401530156114],[91.36715467518987,-7.728807603283886],[91.29437295044308,-7.761187560087401],[91.21882141283228,-7.78622969902826],[91.14122952180568,-7.803693025482564],[91.0623465877573,-7.813409571848636],[90.98293446467615,-7.81528601136937],[90.90376011561328,-7.809304549891468],[90.8255881275375,-7.79552308702438],[90.74917325276975,-7.774074645502169],[90.67525305375642,-7.745166074892431],[90.60454072646907,-7.709076043040473],[90.53771817525279,-7.666152335689635],[90.47542940856,-7.61680849149172],[90.41827432079677,-7.561519806036968],[90.36680292059432,-7.500818744523565],[90.32151006032242,-7.435289808198523],[90.28283071571633,-7.365563904692633],[90.25113585822254,-7.2923122768147355],[90.22672895619834,-7.216240048245612],[90.20984313452945,-7.1380794478728395],[89.4919803443887,-2.837767664344544],[91.08321793105154,-2.5585550303534506],[91.80484470778624,-6.860592788745959]]]]}},{"type":"Feature","properties":{"id":"deep-channel-1"},"geometry":{"type":"MultiPolygon","coordinates":[[[[92.11377275837167,-2.1966816389754373],[92.14380254886643,-2.374672005600559],[88.43074387674854,-3.0261007281985175],[88.40075436410079,-2.848334411109314],[92.11377275837167,-2.1966816389754373]]]]}},{"type":"Feature","properties":{"id":"deep-channel-2"},"geometry":{"type":"MultiPolygon","coordinates":[[[[91.28610113950576,2.213435735255099],[91.32120412526422,2.0368761519642877],[87.62009574319477,1.2799546541385076],[87.58443368288788,1.456151091352842],[91.28610113950576,2.213435735255099]]]]}},{"type":"Feature","properties":{"id":"deep-channel-3"},"geometry":{"type":"MultiPolygon","coordinates":[[[[91.6988577049389,5.63504362331804],[91.63111128113472,5.468241135776484],[88.10251749639782,6.867554621863219],[88.16913962977281,7.034751382932717],[91.6988577049389,5.63504362331804]]]]}},{"type":"Feature","properties":{"id":"deep-channel-4"},"geometry":{"type":"MultiPolygon","coordinates":[[[[93.43595695294049,10.142172453588861],[93.37605129767995,9.972224796660573],[89.73952274612239,11.193520450840072],[89.79769481205706,11.364007138768663],[93.43595695294049,10.142172453588861]]]]}},{"type":"Feature","properties":{"id":"deep-channel-5"},"geometry":{"type":"MultiPolygon","coordinates":[[[[95.09756255538524,14.58390517692796],[95.00956794642205,14.425160636504526],[91.55592039871823,16.196424010422476],[91.64224956169305,16.356206743050347],[95.09756255538524,14.58390517692796]]]]}}]}
