{"type":"FeatureCollection","features":[{"type":"Feature","properties":{"name":"revised highland spine","elevation_m":[2200,4000,4300,3500,2400],"established_by_Ma":5},"geometry":{"type":"LineString","coordinates":[[-84.82456077283008,14.941587611545897],[-97.18223017451056,12.901421715734475],[-107.12022776908498,6.692702046003925],[-115.08377124921553,4.5305091564372075],[-120.38125514247052,8.649165105287627]]}},{"type":"Feature","properties":{"name":"highland to basin headwaters","elevation_m":[4000,1600,700,250,90,20],"established_by_Ma":3},"geometry":{"type":"LineString","coordinates":[[-97.18223017451056,12.901421715734475],[-98.07758790810121,7.9216421349887725],[-99.02161606124905,3.950674677294835],[-100.00000000000001,4.666070368803772e-14],[-99.0487564786917,-5.925863849361387],[-97.154780916025,-11.909237850232666]]}},{"type":"Feature","properties":{"name":"western ancestral route","elevation_m":[120,100,150,180,250,240,300,400,350],"established_by_Ma":6},"geometry":{"type":"LineString","coordinates":[[-69.56997922740949,-42.143400565203834],[-61.07522437166177,-42.18770126401959],[-51.59681024232934,-43.043278615345656],[-46.930875693656404,-41.043227914502374],[-40.0115879011735,-41.50672298643904],[-36.2840439503898,-40.20322060024051],[-31.169027557826087,-38.55412762912241],[-20.536281097494427,-40.9665259272288],[-10.915810421362043,-47.042113484239216]]}}]}
