{"type":"FeatureCollection","features":[{"type":"Feature","properties":{"id":"highland to shelf-human platform","sill_m":-45,"oldest_required_Ma":1.0,"proposed_existing_by_Ma":5},"geometry":{"type":"MultiPolygon","coordinates":[[[[100.50876132594104,23.37883194159323],[100.57203015396544,23.400248647052145],[100.636915041823,23.417148442598453],[107.38827550831111,24.76384533823785],[107.48216018374289,24.77569294529983],[107.57690390156786,24.77836758225979],[107.67141507949457,24.77183881263094],[114.18003658930664,23.864523017129326],[114.26492462905388,23.84691963939603],[114.34747925279282,23.821787770113467],[114.42689381077366,23.78937471438545],[114.50239420789491,23.749998786752876],[114.57324672244583,23.70404599779008],[114.63876532481449,23.651966063869114],[114.69831841615009,23.59426779001017],[114.75133491791638,23.53151388221881],[114.79730965495726,23.464315251109365],[114.83580798673879,23.393324872893302],[114.86646965347781,23.31923127697616],[114.88901181558624,23.242751731492618],[114.9032312759819,23.16462519917997],[114.90900588511498,23.0856051361317],[114.90629513787586,23.006452205285477],[114.89513997978699,22.927926975091367],[114.87566184699402,22.85078267178799],[114.84806097057185,22.77575805119137],[114.81261398060198,22.703570452973764],[114.76967084944344,22.634909097162495],[114.71965121672422,22.570428679096405],[114.66304014094395,22.510743315398045],[114.60038332433149,22.45642088969739],[114.53228185887177,22.407977842909705],[114.45938654231568,22.36587444884492],[114.38239181362647,22.330510611820035],[114.3020293577783,22.302222218762292],[114.2190614301824,22.281278074029004],[114.13427395132713,22.267877440825853],[114.04846942251899,22.26214820867609],[113.96245971392955,22.26414570187496],[113.87705877649786,22.27385213925647],[107.5844103996659,23.150005764140097],[101.11291490353207,21.858918524926146],[96.77184250543388,20.1412869955755],[96.692620648857,20.11280907653664],[96.61084688319097,20.091680608488318],[96.5272980645956,20.078100900552286],[96.44276688739144,20.072197581616432],[96.35805468812455,20.074025486828198],[96.27396419509066,20.083566204262155],[96.19129227712496,20.10072828348294],[96.11082274505146,20.125348102777128],[96.03331925872803,20.157191386959607],[95.95951839213369,20.195955362881183],[95.89012290842099,20.241271535082163],[95.82579529630263,20.292709059454946],[95.76715161853879,20.34977868829903],[95.71475572262264,20.411937255773736],[95.66911386298428,20.47859266847588],[95.63066978310012,20.549109361691748],[95.59980030473633,20.622814177797622],[95.57681147008958,20.699002619318154],[95.56193528072063,20.77694542531268],[95.55532707479867,20.855895416071093],[95.5570635811737,20.935094547598624],[95.56714168506143,21.013781114103313],[95.58547793555226,21.09119703373316],[95.61190881965908,21.16659515021802],[95.64619182113478,21.239246480942317],[95.68800727479464,21.308447340405984],[95.73696101858718,21.37352626712433],[95.79258783623904,21.43385068187725],[95.8543556730744,21.48883320594196],[95.92167059675731,21.537937569618755],[95.99388246345457,21.580684044055957],[96.07029123854818,21.616654333143593],[100.50876132594104,23.37883194159323]]]]}}]}
