{"type":"Feature","properties":{"status":"assumed rift-basin outline, not bathymetry"},"geometry":{"type":"Polygon","coordinates":[[[-123.40721665037806,-18.310165456479154],[-123.39242675911228,-18.272847133993363],[-123.37581566675482,-18.237017899676456],[-123.35692858135705,-18.2030480648808],[-123.33541692230155,-18.171221239320428],[-123.31105381124706,-18.14172166024224],[-123.283743955598,-18.114626128369608],[-123.2535275019711,-18.089900905961265],[-123.2205777093622,-18.067403701400384],[-123.18519256918152,-18.046890628675165],[-123.1477807703699,-18.028027800240974],[-123.10884266103061,-18.010406999020514],[-123.06894708262294,-17.993564689722593],[-123.0287051389479,-17.977003479814986],[-122.98874210145219,-17.960215033074263],[-122.94966873806995,-17.942703378192515],[-122.91205338032566,-17.9240075436527],[-122.87639601062874,-17.90372248784116],[-122.84310555925177,-17.881517377742163],[-122.81248145196358,-17.857150396101378],[-122.78470025116111,-17.830479419439715],[-122.75980799479495,-17.80146810011013],[-122.73771856989221,-17.770187096029918],[-122.71821817421952,-17.736810412417046],[-122.70097563469095,-17.701607041125413],[-122.68555807867455,-17.664928295366572],[-122.67145120776286,-17.62719143147257],[-122.65808321464203,-17.588860316378167],[-122.64485122199831,-17.550424032232957],[-122.63114901485028,-17.512374401939137],[-122.61639478829966,-17.475183467083905],[-122.60005764253243,-17.439281950272097],[-122.5816816242685,-17.40503968696507],[-122.56090623454027,-17.372748919509608],[-122.53748249031207,-17.34261121220303],[-122.51128383392431,-17.314728577143022],[-122.48231142020404,-17.289099204187668],[-122.45069356593918,-17.265617973936443],[-122.41667940931494,-17.244081710490242],[-122.38062708671605,-17.224198911499908],[-122.34298698001882,-17.20560348712635],[-122.30428080865552,-17.187871856738248],[-122.26507752771744,-17.17054260095436],[-122.2259671377817,-17.15313775382587],[-122.18753360721223,-17.135184750407173],[-122.15032814855792,-17.116238021376446],[-122.11484407480052,-17.095899249213925],[-122.08149438859111,-17.073835368038438],[-122.05059313096818,-17.0497934978623],[-122.02234134082624,-17.0236121483285],[-121.99681826063427,-16.99522820008591],[-121.97397817787099,-16.964679365884972],[-121.95365302735372,-16.932102039542137],[-121.9355606101412,-16.897724650036576],[-121.91931802332245,-16.861856841026754],[-121.90445965457823,-16.824874984150906],[-121.89045888746043,-16.787204699358057],[-121.87675249752532,-16.749301189890183],[-121.862766603036,-16.71162829732421],[-121.8479429715274,-16.674637238734004],[-121.8317644769579,-16.63874600076822],[-121.813778550636,-16.60432033344118],[-121.79361756933442,-16.57165721095062],[-121.7710152705563,-16.54097151118992],[-121.74581847057854,-16.51238651510574],[-121.717993577035,-16.485928648700458],[-121.68762762476564,-16.461526692744453],[-121.65492381114115,-16.439015477585755],[-121.62019175448414,-16.41814387276501],[-121.5838329360221,-16.398586683374685],[-121.54632200189666,-16.379959886606624],[-121.50818478775474,-16.36183849103612],[-121.46997407609693,-16.343776184763414],[-121.43224419904116,-16.325325861664524],[-121.39552565146046,-16.30606008079427],[-121.3603008786484,-16.2855905234565],[-121.32698234819419,-16.26358556457829],[-121.29589390956399,-16.23978516684056],[-121.26725629150583,-16.214012432861608],[-121.24117739379001,-16.186181306502004],[-121.21764780511054,-16.156300091834556],[-121.19654173407213,-16.12447064948346],[-121.17762328708281,-16.090883326401084],[-121.16055777811775,-16.055807868105347],[-121.14492752288827,-16.019580743513558],[-121.13025136512401,-15.982589473849659],[-121.11600701503004,-15.945254691538494],[-121.10165515699482,-15.908010756499136],[-121.08666421037083,-15.871285821143871],[-121.07053460614398,-15.835482258624806],[-121.05282147353323,-15.80095835019212],[-121.03315471161459,-15.768012067601592],[-121.0112555474167,-15.736867687945308],[-120.98694884724323,-15.707665845568037],[-120.9601706444432,-15.680457465054129],[-120.93097056557947,-15.655201838219066],[-120.89950906831363,-15.631768915243287],[-120.8660496383311,-15.60994568476208],[-120.83094631924405,-15.589446329198262],[-120.79462715890844,-15.56992566883381],[-120.75757433890217,-15.550995259149191],[-120.72030190294468,-15.532241387640882],[-120.68333210801802,-15.513244133895206],[-120.64717148373605,-15.49359661357274],[-120.61228769789065,-15.472923524634266],[-120.5790882880342,-15.450898152172734],[-120.5479022317268,-15.427257064319525],[-120.51896519535624,-15.40181184191863],[-120.49240912921992,-15.374457323637728],[-120.45725720711086,-15.332871451997717],[-120.41748197183384,-15.286876050222652],[-120.39024965528631,-15.251573583652503],[-120.36917430837107,-15.218998177653388],[-120.3494455971077,-15.185125884710267],[-120.33066315138122,-15.150343884818964],[-120.31238551057669,-15.115078995824634],[-120.29415054173637,-15.079777965798927],[-120.27549669351163,-15.044886939889578],[-120.25598410726708,-15.010831044723492],[-120.23521462128618,-14.977995025112866],[-120.21284976230359,-14.946705816568839],[-120.18862591711242,-14.917217845266128],[-120.16236601069392,-14.889701718848801],[-120.13398717977805,-14.86423681279703],[-120.10350411452524,-14.84080807544508],[-120.07102793797038,-14.819307178732783],[-120.03676069444015,-14.799537940665624],[-120.00098571568256,-14.781225748757185],[-119.96405431847745,-14.76403053068298],[-119.9263694520446,-14.747562657510594],[-119.88836705042536,-14.731401033564952],[-119.85049594803327,-14.71511253111469],[-119.81319728092859,-14.698271871737953],[-119.77688431884516,-14.680481041628957],[-119.74192365216513,-14.661387355446388],[-119.70861859445365,-14.64069935085237],[-119.67719555743008,-14.618199800122133],[-119.6477940159812,-14.593755261011966],[-119.62046051248596,-14.567321750036173],[-119.59514696036186,-14.538946299997747],[-119.57171330555265,-14.508764351944395],[-119.54993440150619,-14.47699312125265],[-119.52951075796615,-14.443921259858707],[-119.5100826460712,-14.409895303681813],[-119.49124689024309,-14.375303538620166],[-119.4725755581159,-14.340558033710188],[-119.45363567848146,-14.306075670950648],[-119.43400907707985,-14.27225904422108],[-119.4133114221783,-14.239478102671178],[-119.39120961538941,-14.208053376736503],[-119.36743674536999,-14.17824154921375],[-119.3418039385851,-14.150224023087466],[-119.31420858654099,-14.124098997196835],[-119.28463859603681,-14.099877396970385],[-119.25317249056273,-14.07748282807581],[-119.21997537900265,-14.056755534421054],[-119.18529099415048,-14.037460157315664],[-119.14943018018336,-14.019296918448928],[-119.11275636752916,-14.00191569379098],[-119.07566870855234,-13.98493231573399],[-119.03858365215316,-13.967946342606698],[-119.00191580491806,-13.950559472380561],[-118.9660589575127,-13.932393753446444],[-118.93136814587031,-13.91310876045091],[-118.89814356749517,-13.892416956199739],[-118.86661708587049,-13.87009654871363],[-118.83694193439901,-13.846001271278512],[-118.80918608113092,-13.820066657101155],[-118.78332954387513,-13.792312542278225],[-118.75926576043193,-13.762841703824693],[-118.73680692961979,-13.731834715705087],[-118.71569305470413,-13.69954127731851],[-118.69560425065907,-13.666268428098856],[-118.67617572848792,-13.632366201750065],[-118.65701475043406,-13.59821138792531],[-118.63771876459894,-13.56419015276746],[-118.61789387972355,-13.530680318880975],[-118.5971728322746,-13.498034117753033],[-118.5752316282205,-13.466562202788833],[-118.55180410894141,-13.43651965009135],[-118.52669379096814,-13.408094579712104],[-118.49978245772122,-13.381399906726676],[-118.47103513207561,-13.356468584941098],[-118.44050122456524,-13.333252543231938],[-118.40831182599868,-13.311625343166712],[-118.3746732875853,-13.291388414746411],[-118.33985739881042,-13.272280562951163],[-118.30418862600445,-13.253990288927499],[-118.26802900615691,-13.236170343000868],[-118.2317613952064,-13.218453827963478],[-118.19577184304326,-13.200471104604091],[-118.16043190536749,-13.18186671995625],[-118.12608170341746,-13.162315583304972],[-118.09301450615739,-13.141537654982338],[-118.0614635372428,-13.119310486162268],[-118.03159160417384,-13.095479050534376],[-118.0034840143252,-13.069962435942417],[-117.9771450882841,-13.042757109853895],[-117.9524984125322,-13.013936630194785],[-117.92939079912742,-12.983647835512041],[-117.90759974813238,-12.952103708351482],[-117.88684404737668,-12.919573256052079],[-117.86679700139652,-12.886368887194598],[-117.84710166368379,-12.852831873753372],[-117.8273873589626,-12.819316573602748],[-117.80728672875793,-12.786174141630207],[-117.78645251597852,-12.753736477884555],[-117.76457332282034,-12.722301147018692],[-117.74138762955654,-12.692117955423516],[-117.71669544675215,-12.663377793111104],[-117.69036708584252,-12.636204240298243],[-117.66234866748623,-12.610648308801311],[-117.63266413745656,-12.586686541911243],[-117.601413719333,-12.564222540302351],[-117.56876889485964,-12.543091823125225],[-117.53496415949604,-12.523069780207175],[-117.50028594557759,-12.503882330405432],[-117.46505923229631,-12.485218779145878],[-117.42963246481544,-12.466746270579433],[-117.39436147961973,-12.448125160912825],[-117.35959317623285,-12.429024602213863],[-117.325649684626,-12.409137621718935],[-117.29281375242098,-12.388195010193389],[-117.26131601736587,-12.36597739252169],[-117.2313247411325,-12.34232494135937],[-117.20293846437231,-12.31714430608166],[-117.17618190563832,-12.290412459148575],[-117.15100527480061,-12.262177304369835],[-117.1272870122711,-12.232555039924478],[-117.10483980640515,-12.201724416703563],[-117.08341959049766,-12.169918173015272],[-117.06273708501465,-12.137412053683098],[-117.04247133641589,-12.104511929446486],[-117.02228461628654,-12.071539616545568],[-117.00183798725601,-12.038818052693392],[-116.98080681755353,-12.00665651179074],[-116.95889553465359,-11.97533653455428],[-116.93585094937227,-11.945099215970732],[-116.91147355262382,-11.916134424859758],[-116.88562628420183,-11.888572438907799],[-116.85824039171024,-11.862478364655436],[-116.82931813261133,-11.837849581465369],[-116.79893221716655,-11.814616307641685],[-116.76722203837532,-11.792645242278375],[-116.73438688034098,-11.771746094903254],[-116.7006764324508,-11.751680683182048],[-116.66637905739576,-11.732174162964693],[-116.63180836106552,-11.712927860081479],[-116.63167733606757,-11.713052514855319],[-116.62887555245233,-11.710003613724252],[-116.60105192064869,-11.685126562024307],[-116.57087789770348,-11.663036331685998],[-116.53864366262883,-11.643944924747647],[-116.50465896169196,-11.628035514436066],[-116.46925015190025,-11.615460706710575],[-116.43275709351057,-11.606341093243762],[-116.39552992015915,-11.600764108971905],[-116.35792571613356,-11.59878320455108],[-116.32030513100189,-11.60041734117908],[-116.28302896227619,-11.605650812311108],[-116.24645473701925,-11.614433393831524],[-116.21093332329826,-11.626680821268609],[-116.17680560215479,-11.642275589676562],[-116.14439923029299,-11.661068068882726],[-116.11402552299175,-11.68287792393034],[-116.08597648582291,-11.707495827760615],[-116.06052202261208,-11.734685450493947],[-116.03790734571118,-11.764185707110085],[-116.01835061307024,-11.795713242911086],[-116.00204081480207,-11.828965133898821],[-115.98913592993374,-11.863621777129776],[-115.97976137183794,-11.899349944242028],[-115.97400873844362,-11.935805969700697],[-115.97193488074353,-11.972639043895656],[-115.97356130036212,-12.009494580065311],[-115.97887388402587,-12.046017623128426],[-115.98782297971229,-12.081856267896645],[-116.00032381605669,-12.116665053826535],[-116.01625726329563,-12.150108303463702],[-116.0354709306467,-12.181863372041569],[-116.05778059160109,-12.211623776330903],[-116.0829719251745,-12.23910217179717],[-116.11080255776636,-12.26403314841081],[-116.14100438695989,-12.286175817067189],[-116.1732861654095,-12.305316160499348],[-116.20733631995222,-12.321269124794707],[-116.22375286240414,-12.32710350582672],[-116.23732822992453,-12.347621184714493],[-116.25770900181851,-12.380393390214705],[-116.27742918639404,-12.41379351850619],[-116.29664643652382,-12.447672476126005],[-116.31553315968169,-12.481867198914134],[-116.33427196347007,-12.516204967753266],[-116.35305079366738,-12.55050801231434],[-116.37205789383653,-12.58459827991818],[-116.39147672150567,-12.61830224152644],[-116.41148095830945,-12.6514556052214],[-116.43222975014105,-12.68390780937214],[-116.45386330828447,-12.715526172967365],[-116.47649899375935,-12.74619958918579],[-116.50022799490159,-12.775841659950185],[-116.5251126928209,-12.804393183668227],[-116.55118479121764,-12.831823925229545],[-116.57844426658983,-12.858133616169091],[-116.60685917268745,-12.883352153237992],[-116.63636630979391,-12.907538984920565],[-116.66687274570182,-12.930781697150179],[-116.69825815178228,-12.953193831041593],[-116.73037789499853,-12.974911986307749],[-116.76306680573455,-12.996092283610013],[-116.79614352249348,-13.016906276872792],[-116.82941529839863,-13.037536422086825],[-116.86268314144675,-13.058171221890971],[-116.89574715096765,-13.079000174886476],[-116.92841190698302,-13.100208664903299],[-116.96049176726768,-13.121972928094436],[-116.99181592893387,-13.144455234665855],[-117.02223311720395,-13.167799417242337],[-117.05161577354741,-13.192126869413716],[-117.07986362826422,-13.21753312609546],[-117.10690655855916,-13.244085122268515],[-117.1327066517569,-13.27181920882516],[-117.15725941407673,-13.300739984114788],[-117.1805940877984,-13.330819977900783],[-117.20277306314148,-13.362000201407879],[-117.22389039516395,-13.394191553596574],[-117.24406945985494,-13.427277050403168],[-117.26345980675178,-13.461114821085712],[-117.28223328724822,-13.49554179465022],[-117.3005795577139,-13.530377980189956],[-117.31870107406795,-13.565431228387485],[-117.33680770905457,-13.60050234786507],[-117.35511113472705,-13.635390439897707],[-117.37381912019994,-13.669898308503278],[-117.3931298983162,-13.703837800272202],[-117.41322675432608,-13.73703492956447],[-117.43427298493198,-13.769334649851261],[-117.45640736717917,-13.800605140872921],[-117.47974026384811,-13.83074149369104],[-117.50435047553144,-13.859668691304895],[-117.53028292988097,-13.887343800877533],[-117.5575472761101,-13.91375731429987],[-117.58611742835805,-13.93893359628081],[-117.61593207565306,-13.962930422810683],[-117.64689614969882,-13.985837617094981],[-117.67888321531541,-14.007774814268403],[-117.71173872286388,-14.02888840974383],[-117.74528403810318,-14.049347768305687],[-117.77932114336036,-14.069340791425718],[-117.8136378852419,-14.089068958204718],[-117.84801362889453,-14.108741970324294],[-117.88222516744162,-14.128572142994766],[-117.91605272796916,-14.148768691757853],[-117.94928591248078,-14.169532068889042],[-117.98172941363424,-14.191048502891693],[-118.01320835074422,-14.213484890142098],[-118.04357308130939,-14.23698417920678],[-118.07270335691868,-14.261661375902392],[-118.10051170944081,-14.287600281110395],[-118.12694597345808,-14.314851054107427],[-118.15199087345373,-14.343428672237257],[-118.17566862873667,-14.3733123337259],[-118.19803855487477,-14.404445824985897],[-118.21919566687282,-14.436738847574679],[-118.23926831581237,-14.470069273795065],[-118.25841491650796,-14.504286274485567],[-118.27681984827288,-14.539214238557209],[-118.29468863348866,-14.57465738196225],[-118.31224251873866,-14.610404924638651],[-118.32971260023967,-14.64623669809215],[-118.34733364869642,-14.681929034091937],[-118.36533779809514,-14.717260776797081],[-118.38394826802339,-14.752019256717363],[-118.40337328963334,-14.786006065344592],[-118.42380040125806,-14.819042474052395],[-118.44539127097423,-14.850974349822804],[-118.46827719024077,-14.8816764332758],[-118.49255536543679,-14.911055861012853],[-118.51828611310376,-14.939054834005734],[-118.54549104052681,-14.96565235615712],[-118.57415226663542,-14.990864991653535],[-118.6042127098215,-15.014746615696275],[-118.63557743998264,-15.037387159964629],[-118.66811606275591,-15.058910381050369],[-118.70166607537061,-15.079470706403969],[-118.7360371066503,-15.099249237363498],[-118.77101592921204,-15.118449011929831],[-118.80637211053687,-15.137289650481383],[-118.8418641519134,-15.156001525018235],[-118.87724595075593,-15.174819606291962],[-118.9122734128122,-15.193977152903226],[-118.94671103650923,-15.21369941182489],[-118.98033829221035,-15.234197500637412],[-119.01295562441362,-15.255662637970568],[-119.04438991473098,-15.278260880283353],[-119.07449925755547,-15.30212851036482],[-119.10317691826063,-15.327368206111238],[-119.13035436510401,-15.35404609766116],[-119.1560032901765,-15.382189797388955],[-119.18013656114233,-15.411787461207261],[-119.20280807349661,-15.442787911822382],[-119.22411150194174,-15.475101825794374],[-119.24417797854028,-15.508603957278316],[-119.263172753826,-15.543136342975428],[-119.28129092433231,-15.578512405897076],[-119.298752335334,-15.614521850794011],[-119.31579579033055,-15.650936222217174],[-119.33267271830752,-15.68751497776067],[-119.34964046554107,-15.724011914597524],[-119.36695539017884,-15.760181777344695],[-119.38486594465195,-15.795786869853774],[-119.40360593287288,-15.83060349285577],[-119.42338812600148,-15.864428033501802],[-119.44439841230358,-15.897082541617593],[-119.46679064341988,-15.928419640688903],[-119.49068232149291,-15.958326638865108],[-119.51615124950573,-15.986728726155128],[-119.54323324144772,-16.013591167951336],[-119.57192096025078,-16.03892043143575],[-119.59648830620826,-16.057217690822192],[-119.60748026247113,-16.059582053468034],[-119.6244023694392,-16.0679544718768],[-119.65651836535531,-16.090971218178208],[-119.68968093237423,-16.11315741642751],[-119.72364343030942,-16.134708761344672],[-119.75813678084545,-16.15583893726048],[-119.79287663088085,-16.17677395333918],[-119.82757095439538,-16.197746116729157],[-119.86192788878536,-16.218987803926193],[-119.89566359509901,-16.24072519720947],[-119.9285099307833,-16.263172155129805],[-119.96022172839218,-16.286524383573614],[-119.99058348401506,-16.31095406689976],[-120.01941527465173,-16.33660510718641],[-120.04657774394015,-16.36358910399805],[-120.0719760199941,-16.391982187682338],[-120.09556245699629,-16.421822796542287],[-120.11733812291003,-16.4531104629161],[-120.13735298845593,-16.485805645933688],[-120.15570480654536,-16.519830620269055],[-120.17253670583437,-16.55507140137555],[-120.18803355611624,-16.591380659293975],[-120.20241719606216,-16.62858154596813],[-120.21594064452417,-16.666472335856827],[-120.2288814444319,-16.70483175720242],[-120.24153431250528,-16.743424872226775],[-120.25420328788555,-16.782009349297812],[-120.26719358776775,-16.820341959150614],[-120.28080338770727,-16.858185120838073],[-120.29531574811168,-16.895313321378985],[-120.31099090629465,-16.931519236089482],[-120.32805914530151,-16.96661938422129],[-120.34671443662599,-17.000459166564458],[-120.36710903421827,-17.032917147769627],[-120.389349172302,-17.063908465873915],[-120.41349199012001,-17.093387274360524],[-120.43954377361366,-17.121348147458068],[-120.46745956814647,-17.14782640664802],[-120.49714417874686,-17.17289735481171],[-120.52845453607588,-17.196674433396762],[-120.561203368554,-17.219306346685208],[-120.59516408492411,-17.240973224972045],[-120.63007673804529,-17.261881924494887],[-120.66565491086806,-17.282260585605577],[-120.7015933401729,-17.302352591300533],[-120.73757607345006,-17.322410085248475],[-120.77328493977089,-17.342687221372973],[-120.80840810699677,-17.36343332545819],[-120.84264849534206,-17.384886152858634],[-120.87573182114943,-17.407265425040418],[-120.90741405456454,-17.43076682133137],[-120.93748809029215,-17.455556591020127],[-120.9657894513185,-17.481766935074297],[-120.9922008708249,-17.50949228663795],[-121.01665562682749,-17.538786595644076],[-121.03913953661129,-17.56966169598119],[-121.05969155298106,-17.60208680442578],[-121.07840294086796,-17.635989169813122],[-121.09541505003189,-17.671255859535417],[-121.11091573658253,-17.707736639321666],[-121.12513452190518,-17.745247872251714],[-121.13833661143418,-17.783577334940293],[-121.15081592670218,-17.822489823583883],[-121.16288733139332,-17.861733400797377],[-121.1748782549903,-17.901046116476078],[-121.18711993535284,-17.940163022774737],[-121.19993851363938,-17.97882329503848],[-121.21364622093441,-18.016777267349237],[-121.228532895484,-18.053793193321198],[-121.24485806244071,-18.089663549808115],[-121.26284379453396,-18.124210713057856],[-121.28266855236483,-18.157291853230902],[-121.30446217752673,-18.188802913644043],[-121.32830218112105,-18.218681565069936],[-121.35421143529682,-18.24690905229881],[-121.38215733718415,-18.273510879268088],[-121.41205247412142,-18.298556309657712],[-121.44375677759778,-18.322156691166555],[-121.47708111208235,-18.344462642942904],[-121.51179220512495,-18.365660176049506],[-121.54761878796936,-18.385965845619314],[-121.58425878250071,-18.40562105975043],[-121.62138734160379,-18.424885693486505],[-121.65866552672067,-18.444031175786545],[-121.69574938916422,-18.463333232637698],[-121.73229921097168,-18.483064479939063],[-121.76798865697684,-18.503487065132855],[-121.80251359235297,-18.524845556560756],[-121.83560032896759,-18.547360274103976],[-121.86701307916728,-18.571221243901384],[-121.89656041660115,-18.596582944063886],[-121.9241005698038,-18.62355998770227],[-121.94954540479333,-18.652223864791825],[-121.97286298711359,-18.682600836075636],[-121.99407865072068,-18.71467104113771],[-122.01327453997932,-18.74836884982619],[-122.03058763087073,-18.78358445230656],[-122.0462062773679,-18.82016664913912],[-122.06036536785105,-18.857926769869565],[-122.07334021346928,-18.89664361763144],[-122.08543932457982,-18.93606930906068],[-122.09699626192574,-18.97593585420277],[-122.10836077522309,-19.015962300730802],[-122.11988946256317,-19.055862251234785],[-122.13193619885107,-19.095351551992774],[-122.14484258986735,-19.134155946745416],[-122.1589287100806,-19.17201848966398],[-122.17448437685319,-19.208706517874443],[-122.19176120115566,-19.244017995376822],[-122.21096563554116,-19.27778705664715],[-122.23225321434474,-19.30988859917548],[-122.25572414949812,-19.34024179911899],[-122.33838647395278,-19.273811912390126],[-122.34071435267977,-19.276634730057378],[-122.38974724952608,-19.325388206186194],[-122.44361140173883,-19.369374094350345],[-122.50178651660923,-19.408165434053284],[-122.56370927113826,-19.441385541285886],[-122.62877885159118,-19.468711760995703],[-122.69636291178668,-19.489878684988874],[-122.76580388608481,-19.50468079952264],[-122.83642558731765,-19.512974533096617],[-122.90754001523369,-19.514679681680978],[-122.97845429755239,-19.509780195721692],[-123.04847768355746,-19.49832432061739],[-123.11692850936942,-19.480424089838696],[-123.18314105465315,-19.456254177327157],[-123.24647221251158,-19.42605012313359],[-123.30630789762336,-19.390105953307994],[-123.3620691221918,-19.348771221718234],[-123.41321767483282,-19.302447507649145],[-123.45926134397155,-19.251584408632],[-123.49975863444192,-19.19667507290927],[-123.53432293359222,-19.138251320205082],[-123.56262609108701,-19.07687840302085],[-123.58440138457168,-19.013149463501293],[-123.5994458512552,-18.947679743027518],[-123.60762197311699,-18.88110060311531],[-123.60885871073218,-18.814053416963738],[-123.60315188754194,-18.74718339115461],[-123.59056393270762,-18.68113337659592],[-123.57122299644108,-18.61653772688198],[-123.54532145689168,-18.554016260858987],[-123.51311384229919,-18.49416838438345],[-123.47491419622042,-18.43756742408509],[-123.43342417916155,-18.387565921799244],[-123.43355650736416,-18.38745813575121],[-123.42072592337746,-18.34853256166166],[-123.40721665037806,-18.310165456479154]]]}}
